name,address,lat,long,description,State,Market City,Frequency,Format,Tower,Slogan,Avails,Spot Rate,Transmitter Location,unnamed (1),Location
WBRI-AM,"VWC6+4QG Indianapolis, Indiana",39.8703125,34.9531375,"State: IN<br>Market City: Indianapolis<br>Frequency: 96.7 FM<br>1500 AM<br>Format: Religious<br>Tower: VWC6+4QG Indianapolis, Indiana<br>Slogan: ""Radio That Changes the Way You Live""<br>Avails: 6A-7P 2/HR.<br>Spot Rate: $30 ",<value>IN</value>,<value>Indianapolis</value>,"<value>96.7 FM
1500 AM</value>",<value>Religious</value>,"<value>VWC6+4QG Indianapolis, Indiana</value>","<value>""Radio That Changes the Way You Live""</value>",<value>6A-7P 2/HR.</value>,<value>$30 </value>,,,
WBXR,"X934+722 Hazel Green, Alabama",34.9531375,-86.6449844,"State: AL<br>Market City: Huntsvile<br>Frequency: 101.3 FM<br>1140 AM<br>Format: Religious<br>Tower: X934+722 Hazel Green, Alabama<br>Slogan: ""Radio That Changes the Way You Live""<br>Avails: 6A-7P 2/HR.<br>Spot Rate: $30 ",<value>AL</value>,<value>Huntsvile</value>,"<value>101.3 FM
1140 AM</value>",<value>Religious</value>,"<value>X934+722 Hazel Green, Alabama</value>","<value>""Radio That Changes the Way You Live""</value>",<value>6A-7P 2/HR.</value>,<value>$30 </value>,,,
WBZX,"MM68+VMR Rodney, Michigan",43.6622375,-85.3333594,"State: MI<br>Market City: Big Rapids<br>Frequency: 103.9 FM<br>Format: 80's and More<br>Tower: MM68+VMR Rodney, Michigan<br>Slogan: ""B103.9""<br>Avails: 6A - 7P<br>Spot Rate: $25 ",<value>MI</value>,<value>Big Rapids</value>,<value>103.9 FM</value>,<value>80's and More</value>,"<value>MM68+VMR Rodney, Michigan</value>","<value>""B103.9""</value>",<value>6A - 7P</value>,<value>$25 </value>,,,
WCDY,"5MC7+C4V Haring Charter Township, Michigan",44.1711125,-85.3372031,"State: MI<br>Market City: Cadillac<br>Frequency: 107.9 FM<br>Format: Top 40<br>Tower: 5MC7+C4V Haring Charter Township, Michigan<br>Slogan: ""Cadillac's #1 Hit Music Station""<br>Avails: 6A - 7P<br>Spot Rate: $35 ",<value>MI</value>,<value>Cadillac</value>,<value>107.9 FM</value>,<value>Top 40</value>,"<value>5MC7+C4V Haring Charter Township, Michigan</value>","<value>""Cadillac's #1 Hit Music Station""</value>",<value>6A - 7P</value>,<value>$35 </value>,,,
WCEI (ROS!!!),"XW44+FR9 Wye Mills, Maryland",38.9561625,-76.0928906,"State: MD<br>Market City: Easton<br>Frequency: 96.7 FM��<br>Format: Mix<br>Tower: XW44+FR9 Wye Mills, Maryland<br>Slog""Best Variety 96.7 FM""<br>Avails: ROS 6-10A, Noon-1, 3-7P<br>Spot Rate: $18.00 ",<value>MD</value>,<value>Easton</value>,<value>96.7 FM��</va,<value>Mix</value>,"<value>XW44+FR9 Wye Mills, Maryland</value>","<value>""Best Variety 96.7 FM""</value>","<value>ROS 6-10A, Noon-1, 3-7P</value>",<value>$18.00 </value>,,,
WCKC,"5MC7+C6R Haring Charter Township, Michigan",44.1711125,-85.3369844,"State: MI<br>Market City: Cadillac<br>Frequency: 107.1 FM<br>Format: Classic Rock<br>Tower: 5MC7+C6R Haring Charter Township, Michigan<br>Slogan: ""107.1 The Drive""<br>Avails: 6A - 7P<br>Spot Rate: $35 ",<value>MI</value>,<value>Cadillac</value>,<value>107.1 FM</value>,<value>Classic Rock</value>,"<value>5MC7+C6R Haring Charter Township, Michigan</value>","<value>""107.1 The Drive""</value>",<value>6A - 7P</value>,<value>$35 </value>,,,
WCPC-AM,"WXHR+F3P Houston, Mississippi",33.9287125,-89.0097969,"State: MS<br>Market City: Tupelo<br>Frequency: 105.7 FM<br>940 AM<br>Format: Religious<br>Tower: WXHR+F3P Houston, Mississippi<br>Slogan: ""Radio That Changes the Way You Live""<br>Avails: 6A-7P 2/HR.<br>Spot Rate: $30.00 ",<value>MS</value>,<value>Tupelo</value>,"<value>105.7 FM
940 AM</value>",<value>Religious</value>,"<value>WXHR+F3P Houston, Mississippi</value>","<value>""Radio That Changes the Way You Live""</value>",<value>6A-7P 2/HR.</value>,<value>$30.00 </value>,,,
WCSS-AM,"XR6F+FJF Amsterdam, New York",42.9611875,-74.1759531,"State: NY<br>Market City: Amsterdam<br>Frequency: 1490<br>Format: Classic Hits<br>Tower: XR6F+FJF Amsterdam, New York<br>Slogan: ""Your Classic Hits Station""<br>Avails: 6A-7P 2HR<br>Spot Rate: $5.00<br>Does not keep CC info.",<value>NY</value>,<value>Amsterdam</value>,<value>1490</value>,<value>Classic Hits</value>,"<value>XR6F+FJF Amsterdam, New York</value>","<value>""Your Classic Hits Station""</value>",<value>6A-7P 2HR</value>,"<value>$5.00
Does not keep CC info.</value>",,,
WDBC,"QW74+632 Escanaba, Michigan",45.7630125,-87.0948594,"State: MI<br>Market City: Escabana<br>Frequency: 94.5 FM<br>680 AM<br>Format: Adult Contemporary & Oldies<br>Tower: QW74+632 Escanaba, Michigan<br>Slogan: ""WDBC 94.5""<br>Avails: 6A - 7P<br>Spot Rate: $20 ",<value>MI</value>,<value>Escabana</value>,"<value>94.5 FM
680 AM</value>",<value>Adult Contemporary &amp; Oldies</value>,"<value>QW74+632 Escanaba, Michigan</value>","<value>""WDBC 94.5""</value>",<value>6A - 7P</value>,<value>$20 </value>,,,
WDEE,"Q9JM+HG8 Green Charter Twp, Michigan",43.7814125,-85.6161719,"State: MI<br>Market City: Big Rapids<br>Frequency: 97.3 FM<br>Format: Oldies<br>Tower: Q9JM+HG8 Green Charter Twp, Michigan<br>Slogan: ""Sunny 97.3""<br>Avails: 6A-7P<br>Sunday - Saturday<br>2/Hr.<br>Spot Rate: $10/30 Sec<br>$12/60 Sec",<value>MI</value>,<value>Big Rapids</value>,<value>97.3 FM</value>,<value>Oldies</value>,"<value>Q9JM+HG8 Green Charter Twp, Michigan</value>","<value>""Sunny 97.3""</value>","<value>6A-7P
Sunday - Saturday
2/Hr.</value>","<value>$10/30 Sec
$12/60 Sec</value>",,,
WDJO,"6G66+RF3 Cincinnati, Ohio",39.2120125,-84.4888281,"State: OH<br>Market City: Cincinnati<br>Frequency: 99.5, 107.9,<br>1480 AM<br>Format: Oldies<br>Tower: 6G66+RF3 Cincinnati, Ohio<br>Slogan: ""Oldies 1480""<br>Avails: 6A-7P 2/HR<br>Spot Rate: $25/SPOT Quick Books Link - email",<value>OH</value>,<value>Cincinnati</value>,"<value>99.5, 107.9,
1480 AM</value>",<value>Oldies</value>,"<value>6G66+RF3 Cincinnati, Ohio</value>","<value>""Oldies 1480""</value>",<value>6A-7P 2/HR</value>,<value>$25/SPOT Quick Books Link - email</value>,,,
WDZY,"7J54+98X Colonial Heights, Virginia",37.2584875,-77.3941406,"State: VA<br>Market City: Richmond<br>Frequency: 103.3 FM<br>1290 AM<br>Format: Religious<br>Tower: 7J54+98X Colonial Heights, Virginia<br>Slogan: ""Christian Talk""<br>Avails: 6A-7P 2/HR.<br>Spot Rate: $30.00 ",<value>VA</value>,<value>Richmond</value>,"<value>103.3 FM
1290 AM</value>",<value>Religious</value>,"<value>7J54+98X Colonial Heights, Virginia</value>","<value>""Christian Talk""</value>",<value>6A-7P 2/HR.</value>,<value>$30.00 </value>,,,
WELP-AM,"R9Q6+RGC Arial, South Carolina",34.8395625,-82.6387344,"State: SC<br>Market City: Greenville<br>Frequency: 104.3 FM<br>1360 AM<br>Format: Religious<br>Tower: R9Q6+RGC Arial, South Carolina<br>Slogan: ""Radio That Changes the Way You Live""<br>Avails: 6A-7P 2/HR.<br>Spot Rate: $30.00 ",<value>SC</value>,<value>Greenville</value>,"<value>104.3 FM
1360 AM</value>",<value>Religious</value>,"<value>R9Q6+RGC Arial, South Carolina</value>","<value>""Radio That Changes the Way You Live""</value>",<value>6A-7P 2/HR.</value>,<value>$30.00 </value>,,,
WFAM,"F346+7JF Augusta, Georgia",33.4556875,-81.9384531,"State: GA<br>Market City: Agusta<br>Frequency: 1050 AM<br>Format: Religious<br>Tower: F346+7JF Augusta, Georgia<br>Slogan: ""Todays Family Talk""<br>Avails: 6A-7P 2/HR.<br>Spot Rate: $30.00 ",<value>GA</value>,<value>Agusta</value>,<value>1050 AM</value>,<value>Religious</value>,"<value>F346+7JF Augusta, Georgia</value>","<value>""Todays Family Talk""</value>",<value>6A-7P 2/HR.</value>,<value>$30.00 </value>,,,
WGBN (ROS!!!),"8562+H6J Lincoln, Pennsylvania",40.3114625,-79.8494844,"State: PA<br>Market City: McKeesport<br>Frequency: 1360 AM<br>Format: Gospel Music<br>Tower: 8562+H6J Lincoln, Pennsylvania<br>Slogan: ""Pittsburgh's Power""<br>Avails: ROS 6-10A, Noon-1, 3-7P<br>Spot Rate: $18.00 ",<value>PA</value>,<value>McKeesport</value>,<value>1360 AM</value>,<value>Gospel Music</value>,"<value>8562+H6J Lincoln, Pennsylvania</value>","<value>""Pittsburgh's Power""</value>","<value>ROS 6-10A, Noon-1, 3-7P</value>",<value>$18.00 </value>,,,
WHAK,"93XH+66F Moltke, Michigan",45.3980625,-83.9219531,"State: MI<br>Market City: Rodgers City<br>Frequency: 960 AM<br>Format: Talk<br>Tower: 93XH+66F Moltke, Michigan<br>Slogan: ""WHAK News Radio""<br>Avails: 6A-7P<br>Spot Rate: $20 ",<value>MI</value>,<value>Rodgers City</value>,<value>960 AM</value>,<value>Talk</value>,"<value>93XH+66F Moltke, Michigan</value>","<value>""WHAK News Radio""</value>",<value>6A-7P</value>,<value>$20 </value>,,,
WHB,"8C4F+8WJ Kansas City, Missouri",39.3058375,-94.5752344,"State: MO<br>Market City: Kansas City<br>Frequency: 810AM<br>Format: Sports<br>Tower: 8C4F+8WJ Kansas City, Missouri<br>Slogan: ""Sportsradio 810""<br>Avails: 6-10am $100 11am-2pm $110 3pm-7pm $125<br>Spot Rate: ",<value>MO</value>,<value>Kansas City</value>,<value>810AM</value>,<value>Sports</value>,"<value>8C4F+8WJ Kansas City, Missouri</value>","<value>""Sportsradio 810""</value>",<value>6-10am $100 11am-2pm $110 3pm-7pm $125</value>,<value/>,,,
"WHBE, ESPN","38R9+R44 Louisville, Kentucky",38.0920125,-85.6821719,"State: KY<br>Market City: Newburg<br>Frequency: 680AM<br>Format: Sports<br>Tower: 38R9+R44 Louisville, Kentucky<br>Slogan: ""ESPN Radio 680""<br>Avails: 6A-7P 2/HR<br>Spot Rate: $20.00 ",<value>KY</value>,<value>Newburg</value>,<value>680AM</value>,<value>Sports</value>,"<value>38R9+R44 Louisville, Kentucky</value>","<value>""ESPN Radio 680""</value>",<value>6A-7P 2/HR</value>,<value>$20.00 </value>,,,
WHNN,"H836+427 Hampton Twp, Michigan",43.5527875,-83.6899531,"State: MI<br>Market City: Bay City<br>Frequency: 96.1 FM<br>Format: Adult Contemporary<br>Tower: H836+427 Hampton Twp, Michigan<br>Slogan: ""80's, 90's and Now""<br>Avails: 5A-12A<br>Spot Rate: $40.00 ",<value>MI</value>,<value>Bay City</value>,<value>96.1 FM</value>,<value>Adult Contemporary</value>,"<value>H836+427 Hampton Twp, Michigan</value>","<value>""80's, 90's and Now""</value>",<value>5A-12A</value>,<value>$40.00 </value>,,,
WHPB,"HGFQ+Q2C Pine Hills, Florida",28.5744375,-81.4624844,"State: FL<br>Market City: Orlando<br>Frequency: 98.5 FM<br>Format: Hip Hop R&B<br>Tower: HGFQ+Q2C Pine Hills, Florida<br>Slogan: ""98.5 The Wire""<br>Avails: 6A-7P<br>Spot Rate: $10 ",<value>FL</value>,<value>Orlando</value>,<value>98.5 FM</value>,<value>Hip Hop R&amp;B</value>,"<value>HGFQ+Q2C Pine Hills, Florida</value>","<value>""98.5 The Wire""</value>",<value>6A-7P</value>,<value>$10 </value>,,,
WIJD-FM,"PWW4+C84 Prichard, Alabama",30.7460125,-88.0941719,"State: AL<br>Market City: Mobile<br>Frequency: 1270 AM<br>97.9 FM<br>Format: Religious<br>Tower: PWW4+C84 Prichard, Alabama<br>Slogan: ""Radio That Changes the Way You Live""<br>Avails: 6A-7P 2/HR.<br>Spot Rate: $30.00 ",<value>AL</value>,<value>Mobile</value>,"<value>1270 AM
97.9 FM</value>",<value>Religious</value>,"<value>PWW4+C84 Prichard, Alabama</value>","<value>""Radio That Changes the Way You Live""</value>",<value>6A-7P 2/HR.</value>,<value>$30.00 </value>,,,
WINX (ROS!!!),"JWJV+592 Trappe, Maryland",38.6303875,-76.0566094,"State: MD<br>Market City: Saint Michaels<br>Frequency: 94.3 FM<br>Format: Contemporary<br>Tower: JWJV+592 Trappe, Maryland<br>Slogan: ""The Mid-Shore���s Country St""<br>Avails: ROS 6-10A, Noon-1, 3-7P<br>Spot Rate: $18.00 ",<value>MD</value>,<value>Saint Michaels</value>,<value>94.3 FM</value>,<value>Contemporary</value>,"<value>JWJV+592 Trappe, Maryland</value>","<value>""The Mid-Shore���s Country St""</value>","<value>ROS 6-10A, Noon-1, 3-7P</value>",<value>$18.00 </value>,,,
WITK,"86W8+F4H Duryea, Pennsylvania",41.3461875,-75.7846406,"State: PA<br>Market City: WIlkes-Barre/Scranton<br>Frequency: 94.7 FM<br>1550 AM<br>Format: Religious<br>Tower: 86W8+F4H Duryea, Pennsylvania<br>Slogan: ""Radio That Changes the Way You Live""<br>Avails: 6A-7P 2/HR.<br>Spot Rate: $30.00 ",<value>PA</value>,<value>WIlkes-Barre/Scranton</value>,"<value>94.7 FM
1550 AM</value>",<value>Religious</value>,"<value>86W8+F4H Duryea, Pennsylvania</value>","<value>""Radio That Changes the Way You Live""</value>",<value>6A-7P 2/HR.</value>,<value>$30.00 </value>,,,
WIWF,"W8F2+R8R Awendaw, South Carolina",32.9246125,-79.6992344,"State: SC<br>Market City: Charleston<br>Frequency: 96.9 FM<br>Format: Classic Hits<br>Tower: W8F2+R8R Awendaw, South Carolina<br>Slogan: ""96.9 The Wolf""<br>Avails: M - F 6am - 7pm<br>Spot Rate: $20 ",<value>SC</value>,<value>Charleston</value>,<value>96.9 FM</value>,<value>Classic Hits</value>,"<value>W8F2+R8R Awendaw, South Carolina</value>","<value>""96.9 The Wolf""</value>",<value>M - F 6am - 7pm</value>,<value>$20 </value>,,,
WKAD,"7CH5+6GG Boon, Michigan",44.2780625,-85.5911719,"State: MI<br>Market City: Harrietta<br>Frequency: 93.7 FM<br>Format: Sports Talk<br>Tower: 7CH5+6GG Boon, Michigan<br>Slogan: ""The Ticket""<br>Avails: M-F 6A-7P<br>Spot Rate: $30 ",<value>MI</value>,<value>Harrietta</value>,<value>93.7 FM</value>,<value>Sports Talk</value>,"<value>7CH5+6GG Boon, Michigan</value>","<value>""The Ticket""</value>",<value>M-F 6A-7P</value>,<value>$30 </value>,,,
WKAJ,"X8X5+WF9 St Johnsville, New York",42.9997875,-74.6912656,"State: NY<br>Market City: Saint Johnsville<br>Frequency: 1120<br>97.9 FM<br>Format: Country<br>Tower: X8X5+WF9 St Johnsville, New York<br>Slogan: ""The Outlaw""<br>Avails: 6A-7P 2HR<br>Spot Rate: $5.00<br>Does not keep CC info.",<value>NY</value>,<value>Saint Johnsville</value>,"<value>1120
97.9 FM</value>",<value>Country</value>,"<value>X8X5+WF9 St Johnsville, New York</value>","<value>""The Outlaw""</value>",<value>6A-7P 2HR</value>,"<value>$5.00
Does not keep CC info.</value>",,,
WKHQ (ROS!!!),"5WJ3+439 East Jordan, Michigan",45.1802875,-85.0972656,"State: MI<br>Market City: Charlevoix<br>Frequency: 105.9 FM<br>Format: Adult Contemporary<br>Tower: 5WJ3+439 East Jordan, Michigan<br>Slogan: ""Northern Michigans Hit Music Channel""<br>Avails: M-F<br>6A - 10A<br>3P - 7P<br>Spot Rate: $42 ",<value>MI</value>,<value>Charlevoix</value>,<value>105.9 FM</value>,<value>Adult Contemporary</value>,"<value>5WJ3+439 East Jordan, Michigan</value>","<value>""Northern Michigans Hit Music Channel""</value>","<value>M-F
6A - 10A
3P - 7P</value>",<value>$42 </value>,,,
WKLQ (ROS - Same slot required),"V24P+6XP Zeeland Charter Township, Michigan",42.8555875,-85.9625469,"State: MI<br>Market City: Whitehall<br>Frequency: 94.5 FM<br>1490 AM<br>Format: Adult Album Alternative<br>Tower: V24P+6XP Zeeland Charter Township, Michigan<br>Slogan: ""The Q 94.5""<br>Avails: 6A-10A<br>3A-7P 2/HR.<br>Spot Rate: $12.00 ",<value>MI</value>,<value>Whitehall</value>,"<value>94.5 FM
1490 AM</value>",<value>Adult Album Alternative</value>,"<value>V24P+6XP Zeeland Charter Township, Michigan</value>","<value>""The Q 94.5""</value>","<value>6A-10A
3A-7P 2/HR.</value>",<value>$12.00 </value>,,,
WKQZ,"RWW5+F43 Mt Forest, Michigan",43.8461375,-84.0922031,"State: MI<br>Market City: Midland<br>Frequency: 93.3 FM<br>Format: Rock<br>Tower: RWW5+F43 Mt Forest, Michigan<br>Slogan: ""Z93 the Rock Station""<br>Avails: 5A-12A<br>Spot Rate: $40.00 ",<value>MI</value>,<value>Midland</value>,<value>93.3 FM</value>,<value>Rock</value>,"<value>RWW5+F43 Mt Forest, Michigan</value>","<value>""Z93 the Rock Station""</value>",<value>5A-12A</value>,<value>$40.00 </value>,,,
WLAW (ROS - Same slot required),"CJCR+Q82 Montague, Michigan",43.4218875,-86.3592344,"State: MI<br>Market City: Whitehall<br>Frequency: 97.5 FM<br>Format: Country<br>Tower: CJCR+Q82 Montague, Michigan<br>Slogan: ""Muskegon Nash Icon""<br>Avails: 6A-10A<br>3A-7P 2/HR.<br>Spot Rate: $12.00 ",<value>MI</value>,<value>Whitehall</value>,<value>97.5 FM</value>,<value>Country</value>,"<value>CJCR+Q82 Montague, Michigan</value>","<value>""Muskegon Nash Icon""</value>","<value>6A-10A
3A-7P 2/HR.</value>",<value>$12.00 </value>,,,
WLCL,"764R+CQP Louisville, Kentucky",38.2560875,-85.7580469,"State: IN<br>Market City: Sellersburg<br>Frequency: 93.9 FM<br>Format: Sports<br>Tower: 764R+CQP Louisville, Kentucky<br>Slogan: ""93.9 The Ville""<br>Avails: 6A-7P 2/HR<br>Spot Rate: $20.00 ",<value>IN</value>,<value>Sellersburg</value>,<value>93.9 FM</value>,<value>Sports</value>,"<value>764R+CQP Louisville, Kentucky</value>","<value>""93.9 The Ville""</value>",<value>6A-7P 2/HR</value>,<value>$20.00 </value>,,,
WLCS (ROS - Same slot required),"8R7W+H39 Muskegon Charter Township, Michigan",43.3139125,-86.1547656,"State: MI<br>Market City: Muskegon<br>Frequency: 98.3 FM<br>Format: Classic Hits<br>Tower: 8R7W+H39 Muskegon Charter Township, Michigan<br>Slogan: ""Classic Hits 98.3""<br>Avails: 6A-10A<br>3A-7P 2/HR.<br>Spot Rate: $12.00 ",<value>MI</value>,<value>Muskegon</value>,<value>98.3 FM</value>,<value>Classic Hits</value>,"<value>8R7W+H39 Muskegon Charter Township, Michigan</value>","<value>""Classic Hits 98.3""</value>","<value>6A-10A
3A-7P 2/HR.</value>",<value>$12.00 </value>,,,
WLIM (formerly WVIP) (ROS!!!),"Q2W5+97H Medford, New York",40.7959375,-72.9917656,"State: NY<br>Market City: New Rochelle<br>Frequency: 1440 AM<br>Format: The Breeze - Classic Hits with soft Adult Contemporary<br>Tower: Q2W5+97H Medford, New York<br>Slogan: ""The Breeze""<br>Avails: ROS 6-10A, Noon-1, 3-7P<br>Spot Rate: $18.00 ",<value>NY</value>,<value>New Rochelle</value>,<value>1440 AM</value>,<value>The Breeze - Classic Hits with soft Adult Contemporary</value>,"<value>Q2W5+97H Medford, New York</value>","<value>""The Breeze""</value>","<value>ROS 6-10A, Noon-1, 3-7P</value>",<value>$18.00 </value>,,,
WLJD,"8QM3+8CM Charlevoix, Michigan",45.3333375,-85.2464531,"State: MI<br>Market City: Charlevoix<br>Frequency: 107.9 FM<br>Format: Christian<br>Tower: 8QM3+8CM Charlevoix, Michigan<br>Slogan: ""We're Lifting Jesus' Name""<br>Avails: 7A-7P<br>Spot Rate: $18.00 ",<value>MI</value>,<value>Charlevoix</value>,<value>107.9 FM</value>,<value>Christian</value>,"<value>8QM3+8CM Charlevoix, Michigan</value>","<value>""We're Lifting Jesus' Name""</value>",<value>7A-7P</value>,<value>$18.00 </value>,,,
WLJN,"Q8GQ+M59 Elmwood Charter Twp, Michigan",44.7766625,-85.6620156,"State: MI<br>Market City: Traverse City<br>Frequency: 89.9 FM<br>Format: Christian<br>Tower: Q8GQ+M59 Elmwood Charter Twp, Michigan<br>Slogan: ""We're Lifting Jesus' Name""<br>Avails: 7A-7P<br>Spot Rate: $18.00 ",<value>MI</value>,<value>Traverse City</value>,<value>89.9 FM</value>,<value>Christian</value>,"<value>Q8GQ+M59 Elmwood Charter Twp, Michigan</value>","<value>""We're Lifting Jesus' Name""</value>",<value>7A-7P</value>,<value>$18.00 </value>,,,
WLMR-AM,"2PXG+9F6 Chattanooga, Tennessee",35.0484125,-85.2738594,"State: TN<br>Market City: Chattanooga<br>Frequency: 103.3 FM<br>1450 AM<br>Format: Religious<br>Tower: 2PXG+9F6 Chattanooga, Tennessee<br>Slogan: ""Radio That Changes the Way You Live""<br>Avails: 6A-7P 2/HR.<br>Spot Rate: $30.00 ",<value>TN</value>,<value>Chattanooga</value>,"<value>103.3 FM
1450 AM</value>",<value>Religious</value>,"<value>2PXG+9F6 Chattanooga, Tennessee</value>","<value>""Radio That Changes the Way You Live""</value>",<value>6A-7P 2/HR.</value>,<value>$30.00 </value>,,,
WLXT (ROS!!!),"84CF+HJ5 Petoskey, Michigan",45.3213875,-84.8758906,"State: MI<br>Market City: Petoskey<br>Frequency: 96.3 FM<br>Format: Mix<br>Tower: 84CF+HJ5 Petoskey, Michigan<br>Slogan: ""Lite 96.3 FM""<br>Avails: M-F<br>6A - 10A<br>3P - 7P<br>Spot Rate: $42 ",<value>MI</value>,<value>Petoskey</value>,<value>96.3 FM</value>,<value>Mix</value>,"<value>84CF+HJ5 Petoskey, Michigan</value>","<value>""Lite 96.3 FM""</value>","<value>M-F
6A - 10A
3P - 7P</value>",<value>$42 </value>,,,
WLXV,"9CJV+88J Haring Charter Township, Michigan",44.3808375,-85.5567344,"State: MI<br>Market City: Cadillac<br>Frequency: 96.7 FM<br>Format: Country<br>Tower: 9CJV+88J Haring Charter Township, Michigan<br>Slogan: ""96.7 The Bull""<br>Avails: M-F 6A-7P<br>Spot Rate: $35 ",<value>MI</value>,<value>Cadillac</value>,<value>96.7 FM</value>,<value>Country</value>,"<value>9CJV+88J Haring Charter Township, Michigan</value>","<value>""96.7 The Bull""</value>",<value>M-F 6A-7P</value>,<value>$35 </value>,,,
WMBN,"82WM+V6R Petoskey, Michigan",45.3472375,-84.9669844,"State: MI<br>Market City: Petoskey<br>Frequency: 104.7 FM<br>1340 AM<br>Format: Sports Talk<br>Tower: 82WM+V6R Petoskey, Michigan<br>Slogan: ""The Ticket""<br>Avails: M-F<br>6A-7P<br>Spot Rate: $30 ",<value>MI</value>,<value>Petoskey</value>,"<value>104.7 FM
1340 AM</value>",<value>Sports Talk</value>,"<value>82WM+V6R Petoskey, Michigan</value>","<value>""The Ticket""</value>","<value>M-F
6A-7P</value>",<value>$30 </value>,,,
WMFQ,"3WH5+Q79 Belleview, Florida",29.0794125,-82.0917656,"State: FL<br>Market City: Ocala<br>Frequency: 92.9 FM<br>Format: Pop<br>Tower: 3WH5+Q79 Belleview, Florida<br>Slogan: ""92Q""<br>Avails: 6A-7P<br>Spot Rate: $35.00 ",<value>FL</value>,<value>Ocala</value>,<value>92.9 FM</value>,<value>Pop</value>,"<value>3WH5+Q79 Belleview, Florida</value>","<value>""92Q""</value>",<value>6A-7P</value>,<value>$35.00 </value>,,,
WMGL,"W34G+6PF Charleston, South Carolina",32.9055625,-79.9232031,"State: SC<br>Market City: Charleston<br>Frequency: 107.3 FM<br>Format: Urban Contemporary<br>Tower: W34G+6PF Charleston, South Carolina<br>Slogan: ""Magic 107.3""<br>Avails: M - F<br>Spot Rate: 6a - 3p $15<br>3p - 7p $25",<value>SC</value>,<value>Charleston</value>,<value>107.3 FM</value>,<value>Urban Contemporary</value>,"<value>W34G+6PF Charleston, South Carolina</value>","<value>""Magic 107.3""</value>",<value>M - F</value>,"<value>6a - 3p $15
3p - 7p $25</value>",,,
WMJZ,"2H9R+QVP Johannesburg, Michigan",45.0194625,-84.4077969,"State: MI<br>Market City: Gaylord<br>Frequency: 101.5 FM<br>Format: Rock Favorites<br>Tower: 2H9R+QVP Johannesburg, Michigan<br>Slogan: ""Eagle 101.5""<br>Avails: 6A-7P 2 HR<br>Spot Rate: $25.00 ",<value>MI</value>,<value>Gaylord</value>,<value>101.5 FM</value>,<value>Rock Favorites</value>,"<value>2H9R+QVP Johannesburg, Michigan</value>","<value>""Eagle 101.5""</value>",<value>6A-7P 2 HR</value>,<value>$25.00 </value>,,,
WMKT,"7PFX+438 Charlevoix, Michigan",45.2727875,-85.2522969,"State: MI<br>Market City: Charlevoix<br>Frequency: 102.3 FM<br>1270 AM<br>Format: News Talk - Conservative<br>Tower: 7PFX+438 Charlevoix, Michigan<br>Slogan: ""The Talk Station""<br>Avails: M-F 6A-7P<br>Spot Rate: $30 ",<value>MI</value>,<value>Charlevoix</value>,"<value>102.3 FM
1270 AM</value>",<value>News Talk - Conservative</value>,"<value>7PFX+438 Charlevoix, Michigan</value>","<value>""The Talk Station""</value>",<value>M-F 6A-7P</value>,<value>$30 </value>,,,
WMTE,"6P62+CQW Filer Charter Twp, Michigan",44.2111125,-86.2980469,"State: MI<br>Market City: Manistee<br>Frequency: 101.5 FM<br>Format: Rock Favorites<br>Tower: 6P62+CQW Filer Charter Twp, Michigan<br>Slogan: ""Eagle 101.5""<br>Avails: 6A-7P 2 HR<br>Spot Rate: $20.00 ",<value>MI</value>,<value>Manistee</value>,<value>101.5 FM</value>,<value>Rock Favorites</value>,"<value>6P62+CQW Filer Charter Twp, Michigan</value>","<value>""Eagle 101.5""</value>",<value>6A-7P 2 HR</value>,<value>$20.00 </value>,,,
WNAV (ROS!!!),"XFMH+94G Annapolis, Maryland",38.9834375,-76.5221719,"State: MD<br>Market City: Annapolis<br>Frequency: 99.9 FM<br>1430 AM<br>Format: Oldies<br>Tower: XFMH+94G Annapolis, Maryland<br>Slogan: ""Your Hometown Station""<br>Avails: ROS 6-10A, Noon-1, 3-7P<br>Spot Rate: $18.00 ",<value>MD</value>,<value>Annapolis</value>,"<value>99.9 FM
1430 AM</value>",<value>Oldies</value>,"<value>XFMH+94G Annapolis, Maryland</value>","<value>""Your Hometown Station""</value>","<value>ROS 6-10A, Noon-1, 3-7P</value>",<value>$18.00 </value>,,,
WNSR,46RV+FC9 Nashville,36.1411625,-86.7563906,"State: TN<br>Market City: Nashville<br>Frequency: 560 AM<br>95.9 FM<br>107.9 FM<br>Format: Sports<br>Tower:  46RV+FC9 Nashville<br>Slogan: ""Sportsradio 560""<br>Avails: 6am - 7pm <br>2/hr<br>Spot Rate: $12.00 ",<value>TN</value>,<value>Nashville</value>,"<value>560 AM
95.9 FM
107.9 FM</value>",<value>Sports</value>,<value> 46RV+FC9 Nashville</value>,"<value>""Sportsradio 560""</value>","<value>6am - 7pm 
2/hr</value>",<value>$12.00 </value>,,,
WNVY,"HPH6+XM8 Gonzalez, Florida",30.5799125,-87.2882969,"State: FL<br>Market City: Pensacola<br>Frequency: 104.5 FM<br>1070 AM<br>Format: Religious<br>Tower: HPH6+XM8 Gonzalez, Florida<br>Slogan: ""Radio That Changes the Way You Live""<br>Avails: 6A-7P 2/HR.<br>Spot Rate: $30.00 ",<value>FL</value>,<value>Pensacola</value>,"<value>104.5 FM
1070 AM</value>",<value>Religious</value>,"<value>HPH6+XM8 Gonzalez, Florida</value>","<value>""Radio That Changes the Way You Live""</value>",<value>6A-7P 2/HR.</value>,<value>$30.00 </value>,,,
WOAP-AM,"2RJC+8QX Owosso Charter Township, Michigan",43.0308625,-84.1780156,"State: MI<br>Market City: Owasso<br>Frequency: 103.1 FM & 1080 AM<br>Format: Mix<br>Tower: 2RJC+8QX Owosso Charter Township, Michigan<br>Slogan: ""103.1 Portal FM""<br>Avails: 6A-7P 2/HR.<br>Spot Rate: $12.00 ",<value>MI</value>,<value>Owasso</value>,<value>103.1 FM &amp; 1080 AM</value>,<value>Mix</value>,"<value>2RJC+8QX Owosso Charter Township, Michigan</value>","<value>""103.1 Portal FM""</value>",<value>6A-7P 2/HR.</value>,<value>$12.00 </value>,,,
WGRY,"H8C4+8XQ Pere Cheney, Michigan",44.577516,-84.6378036,"State: MI<br>Market City: Roscommon<br>Frequency: 101.1 FM<br>Format: Sports<br>Tower: H8C4+8XQ Pere Cheney, Michigan<br>Slogan: ""Up North Sports Radio""<br>Avails: 6A-7P 2/HR<br>Spot Rate: $15.00 ",<value>MI</value>,<value>Roscommon</value>,<value>101.1 FM</value>,<value>Sports</value>,"<value>H8C4+8XQ Pere Cheney, Michigan</value>","<value>""Up North Sports Radio""</value>",<value>6A-7P 2/HR</value>,<value>$15.00 </value>,,,
WJNL,"HC54+QGG Kingsley, Michigan",44.5594375,-85.5936719,"State: MI<br>Market City: Traverse City<br>Frequency: 1210 AM<br>101.1 FM<br>Format: Talk<br>Tower: HC54+QGG Kingsley, Michigan<br>Slogan: ""Newsradio 1210""<br>Avails: 6A-7P 2/HR<br>Spot Rate: $15.00 ",<value>MI</value>,<value>Traverse City</value>,"<value>1210 AM
101.1 FM</value>",<value>Talk</value>,"<value>HC54+QGG Kingsley, Michigan</value>","<value>""Newsradio 1210""</value>",<value>6A-7P 2/HR</value>,<value>$15.00 </value>,,,
WQON,"H8C4+8XQ Pere Cheney, Michigan",44.577516,-84.6378036,"State: MI<br>Market City: Grayling, MI<br>Frequency: 100.3FM<br>Format: Classic Rock<br>Tower: H8C4+8XQ Pere Cheney, Michigan<br>Slogan: ""Q 100.3""<br>Avails: 6A-7P 2/HR<br>Spot Rate: $25.00 ",<value>MI</value>,"<value>Grayling, MI</value>",<value>100.3FM</value>,<value>Classic Rock</value>,"<value>H8C4+8XQ Pere Cheney, Michigan</value>","<value>""Q 100.3""</value>",<value>6A-7P 2/HR</value>,<value>$25.00 </value>,,,
WREJ (ROS!!!),"GJHC+547 Montrose, Virginia",37.5279125,-77.3797031,"State: VA<br>Market City: Richmond<br>Frequency: 101.3 FM<br>990 AM<br>Format: Gospel<br>Tower: GJHC+547 Montrose, Virginia<br>Slogan: ""Rejoice 990""<br>Avails: ROS 6-10A, Noon-1, 3-7P<br>Spot Rate: $18.00 ",<value>VA</value>,<value>Richmond</value>,"<value>101.3 FM
990 AM</value>",<value>Gospel</value>,"<value>GJHC+547 Montrose, Virginia</value>","<value>""Rejoice 990""</value>","<value>ROS 6-10A, Noon-1, 3-7P</value>",<value>$18.00 </value>,,,
WRUP,"J93H+GJF Ishpeming Township, Michigan",46.6038125,-87.6209531,"State: MI<br>Market City: Marquette<br>Frequency: 98.3 FM<br>Format: Classic Rock<br>Tower: J93H+GJF Ishpeming Township, Michigan<br>Slogan: ""The UP's Only Real Classic Rock Station""<br>Avails: M-Sn<br>6A-7P<br>2/hr<br>Spot Rate: $14.00 ",<value>MI</value>,<value>Marquette</value>,<value>98.3 FM</value>,<value>Classic Rock</value>,"<value>J93H+GJF Ishpeming Township, Michigan</value>","<value>""The UP's Only Real Classic Rock Station""</value>","<value>M-Sn
6A-7P
2/hr</value>",<value>$14.00 </value>,,,
WSKY-AM,"JC9H+H7W Woodfin, North Carolina",35.6189875,-82.5717969,"State: NC<br>Market City: Asheville<br>Frequency: 104.5 FM<br>1070 AM<br>Format: Religious<br>Tower: JC9H+H7W Woodfin, North Carolina<br>Slogan: ""Radio That Changes the Way You Live""<br>Avails: 6A-7P 2/HR.<br>Spot Rate: $30.00 ",<value>NC</value>,<value>Asheville</value>,"<value>104.5 FM
1070 AM</value>",<value>Religious</value>,"<value>JC9H+H7W Woodfin, North Carolina</value>","<value>""Radio That Changes the Way You Live""</value>",<value>6A-7P 2/HR.</value>,<value>$30.00 </value>,,,
WSSX,"Q5W5+8QP Mt Pleasant, South Carolina",32.7958375,-79.8405469,"State: SC<br>Market City: Charleston<br>Frequency: 95.1 FM<br>Format: Top 40<br>Tower: Q5W5+8QP Mt Pleasant, South Carolina<br>Slogan: ""95SX Hit Music Channel""<br>Avails: M - F<br>Spot Rate: 6a - 10a $45<br>10a - 3p $35<br>3p - 7p $45",<value>SC</value>,<value>Charleston</value>,<value>95.1 FM</value>,<value>Top 40</value>,"<value>Q5W5+8QP Mt Pleasant, South Carolina</value>","<value>""95SX Hit Music Channel""</value>",<value>M - F</value>,"<value>6a - 10a $45
10a - 3p $35
3p - 7p $45</value>",,,
WTAN-S,"X6F3+4C6 Clearwater, Florida",27.9727875,-82.7964844,"State: FL<br>Market City: Coachman, Clearwater<br>Frequency: 1340 AM/106.1 FM<br>Format: Oldies<br>Tower: X6F3+4C6 Clearwater, Florida<br>Slogan: ""Tan Talk""<br>Avails: 6A-7P 2/HR.<br>Spot Rate: $20.00 ",<value>FL</value>,"<value>Coachman, Clearwater</value>",<value>1340 AM/106.1 FM</value>,<value>Oldies</value>,"<value>X6F3+4C6 Clearwater, Florida</value>","<value>""Tan Talk""</value>",<value>6A-7P 2/HR.</value>,<value>$20.00 </value>,,,
WTHU (ROS!!!),"JHGW+RV9 Thurmont, Maryland",39.6270375,-77.4027656,"State: MD<br>Market City: Thurmont<br>Frequency: 1450<br>Format: Oldies<br>Tower: JHGW+RV9 Thurmont, Maryland<br>Slogan: ""Cool 1450""<br>Avails: ROS 6-10A, Noon-1, 3-7P<br>Spot Rate: $18.00 ",<value>MD</value>,<value>Thurmont</value>,<value>1450</value>,<value>Oldies</value>,"<value>JHGW+RV9 Thurmont, Maryland</value>","<value>""Cool 1450""</value>","<value>ROS 6-10A, Noon-1, 3-7P</value>",<value>$18.00 </value>,,,
WTMA,"RXFW+PXM West Ashley, Charleston, SC",32.8243375,-80.0025781,"State: SC<br>Market City: Charleston<br>Frequency: 1250 AM<br>Format: News/Talk<br>Tower: RXFW+PXM West Ashley, Charleston, SC<br>Slogan: ""News Talk 1250""<br>Avails: M - F<br>Spot Rate: 6a - 10a $20<br>10a - 3p $15<br>3p -7p $20",<value>SC</value>,<value>Charleston</value>,<value>1250 AM</value>,<value>News/Talk</value>,"<value>RXFW+PXM West Ashley, Charleston, SC</value>","<value>""News Talk 1250""</value>",<value>M - F</value>,"<value>6a - 10a $20
10a - 3p $15
3p -7p $20</value>",,,
WTTR (ROS!!!),"HXGH+W2C Westminster, Maryland",39.5773125,-77.0224844,"State: MD<br>Market City: Westminster<br>Frequency: 93.5 FM, 102.3 FM<br>1470 AM<br>Format: Classic Hits<br>Tower: HXGH+W2C Westminster, Maryland<br>Slogan: ""Greatest Hits of All Time""<br>Avails: ROS 6-10A, Noon-1, 3-7P<br>Spot Rate: $18.00 ",<value>MD</value>,<value>Westminster</value>,"<value>93.5 FM, 102.3 FM
1470 AM</value>",<value>Classic Hits</value>,"<value>HXGH+W2C Westminster, Maryland</value>","<value>""Greatest Hits of All Time""</value>","<value>ROS 6-10A, Noon-1, 3-7P</value>",<value>$18.00 </value>,,,
WTZQ,"8H78+WXJ Hendersonville, North Carolina",35.3148375,-82.4326094,"State: NC<br>Market City: Hendersonville<br>Frequency: 1600 AM<br>95.3 FM<br>Format: Nostalgia<br>Tower: 8H78+WXJ Hendersonville, North Carolina<br>Slogan: ""Your Q-munity Radio Station""<br>Avails: 6am - 7pm<br>Spot Rate: $11.00 ",<value>NC</value>,<value>Hendersonville</value>,"<value>1600 AM
95.3 FM</value>",<value>Nostalgia</value>,"<value>8H78+WXJ Hendersonville, North Carolina</value>","<value>""Your Q-munity Radio Station""</value>",<value>6am - 7pm</value>,<value>$11.00 </value>,,,
WVBH-LPFM,"4H55+M87 Benton Harbor, Michigan",42.1091625,-86.4417031,"State: MI<br>Market City: Benton Harbor<br>Frequency: 105.3 LPFM<br>Format: Hip Hop<br>Tower: 4H55+M87 Benton Harbor, Michigan<br>Slogan: ""Power 105.3""<br>Avails: 6A-7P<br>Spot Rate: $10 ",<value>MI</value>,<value>Benton Harbor</value>,<value>105.3 LPFM</value>,<value>Hip Hop</value>,"<value>4H55+M87 Benton Harbor, Michigan</value>","<value>""Power 105.3""</value>",<value>6A-7P</value>,<value>$10 </value>,,,
WVIB,"8R7W+H39 Muskegon Charter Township, Michigan",43.3139125,-86.1547656,"State: MI<br>Market City: Holton<br>Frequency: 100.1 FM<br>Format: Urban Contemporary<br>Tower: 8R7W+H39 Muskegon Charter Township, Michigan<br>Slogan: ""V100""<br>Avails: 6A-7P 2/HR.<br>Spot Rate: $12.00 ",<value>MI</value>,<value>Holton</value>,<value>100.1 FM</value>,<value>Urban Contemporary</value>,"<value>8R7W+H39 Muskegon Charter Township, Michigan</value>","<value>""V100""</value>",<value>6A-7P 2/HR.</value>,<value>$12.00 </value>,,,
WVTJ,"FQ35+3QH Brent, Florida",30.4526875,-87.2405156,"State: FL<br>Market City: Pensacola<br>Frequency: 105.3 FM<br>610 AM<br>Format: Gospel Music<br>Tower: FQ35+3QH Brent, Florida<br>Slogan: ""Radio That Changes the Way You Live""<br>Avails: 6A-7P 2/HR.<br>Spot Rate: $30.00 ",<value>FL</value>,<value>Pensacola</value>,"<value>105.3 FM
610 AM</value>",<value>Gospel Music</value>,"<value>FQ35+3QH Brent, Florida</value>","<value>""Radio That Changes the Way You Live""</value>",<value>6A-7P 2/HR.</value>,<value>$30.00 </value>,,,
WWBC,"963C+CCV Cocoa West, Florida",28.3536125,-80.7789531,"State: FL<br>Market City: Cocoa<br>Frequency: 94.7, 99.9, 100.7, 1510<br>Format: Religious<br>Tower: 963C+CCV Cocoa West, Florida<br>Slogan: ""Wonderful World of Brevard County""<br>Avails: 6A-7P<br>Spot Rate: $5/Spot; $200 increments",<value>FL</value>,<value>Cocoa</value>,"<value>94.7, 99.9, 100.7, 1510</value>",<value>Religious</value>,"<value>963C+CCV Cocoa West, Florida</value>","<value>""Wonderful World of Brevard County""</value>",<value>6A-7P</value>,<value>$5/Spot; $200 increments</value>,,,
WWNL,"J23Q+WX8 Hampton Township, Pennsylvania",40.6047875,-79.9600469,"State: PA<br>Market City: Pittsburgh<br>Frequency: 103.9 FM<br>1080 AM<br>Format: Religious<br>Tower: J23Q+WX8 Hampton Township, Pennsylvania<br>Slogan: ""Radio That Changes the Way You Live""<br>Avails: 6A-7P 2/HR.<br>Spot Rate: $30.00 ",<value>PA</value>,<value>Pittsburgh</value>,"<value>103.9 FM
1080 AM</value>",<value>Religious</value>,"<value>J23Q+WX8 Hampton Township, Pennsylvania</value>","<value>""Radio That Changes the Way You Live""</value>",<value>6A-7P 2/HR.</value>,<value>$30.00 </value>,,,
WWNN,"5QJH+7Q2 Tamarac, Florida",26.1806375,-80.2206094,"State: FL<br>Market City: Pompano Beach<br>Frequency: 1470 AM<br>95.3 FM<br>To be added 12/2: 96.9 FM, 103.9 FM<br>Format: Business News - hocus pocus radio<br>NO MORNING SPOT TIMES<br>Tower: 5QJH+7Q2 Tamarac, Florida<br>Slogan: ""Oldies 95.3 & 96.9""<br>Avails: Noon-7P<br>Spot Rate: $20.00 ",<value>FL</value>,<value>Pompano Beach</value>,"<value>1470 AM
95.3 FM
To be added 12/2: 96.9 FM, 103.9 FM</value>","<value>Business News - hocus pocus radio
NO MORNING SPOT TIMES</value>","<value>5QJH+7Q2 Tamarac, Florida</value>","<value>""Oldies 95.3 &amp; 96.9""</value>",<value>Noon-7P</value>,<value>$20.00 </value>,,,
WWSN,"835P+VXW Sheridan Charter Twp, Michigan",43.3097375,-85.9125469,"State: MI<br>Market City: Newaygo<br>Frequency: 92.5 FM<br>Format: Adult Contemporary<br>Tower: 835P+VXW Sheridan Charter Twp, Michigan<br>Slogan: ""Sunny 92.5""<br>Avails: 6A-10A<br>3P - 7P<br>All A or P<br>Spot Rate: $12.00 ",<value>MI</value>,<value>Newaygo</value>,<value>92.5 FM</value>,<value>Adult Contemporary</value>,"<value>835P+VXW Sheridan Charter Twp, Michigan</value>","<value>""Sunny 92.5""</value>","<value>6A-10A
3P - 7P
All A or P</value>",<value>$12.00 </value>,,,
WWSX (ROS!!!),"PVCH+H7V Aspen Meadows, Delaware",38.7214875,-75.1218281,"State: DE<br>Market City: Rehoboth<br>Frequency: 99.1 FM<br>Format: Variety<br>Tower: PVCH+H7V Aspen Meadows, Delaware<br>Slogan: ""Radio Rehoboth""<br>Avails: ROS 6-10A, Noon-1, 3-7P<br>Spot Rate: $18.00 ",<value>DE</value>,<value>Rehoboth</value>,<value>99.1 FM</value>,<value>Variety</value>,"<value>PVCH+H7V Aspen Meadows, Delaware</value>","<value>""Radio Rehoboth""</value>","<value>ROS 6-10A, Noon-1, 3-7P</value>",<value>$18.00 </value>,,,
WWWZ,"W34G+6PF Charleston, South Carolina",32.9055625,-79.9232031,"State: SC<br>Market City: Charleston<br>Frequency: 93.3 FM<br>Format: Hip Hop<br>Tower: W34G+6PF Charleston, South Carolina<br>Slogan: ""Z93 Jamz""<br>Avails: M - F<br>Spot Rate: 6a - 10a $55<br>10a - 3p $50<br>3p - 7p $55",<value>SC</value>,<value>Charleston</value>,<value>93.3 FM</value>,<value>Hip Hop</value>,"<value>W34G+6PF Charleston, South Carolina</value>","<value>""Z93 Jamz""</value>",<value>M - F</value>,"<value>6a - 10a $55
10a - 3p $50
3p - 7p $55</value>",,,
WXLW,"VQ24+H6G Indianapolis, Indiana",39.8514375,-86.2444219,"State: IN<br>Market City: Indianapolis<br>Frequency: 950 AM<br>Format: Talk<br>Tower: VQ24+H6G Indianapolis, Indiana<br>Slogan: ""Freedom 950""<br>Avails: 6am - 7pm <br>2/hr<br>Spot Rate: $20.00 ",<value>IN</value>,<value>Indianapolis</value>,<value>950 AM</value>,<value>Talk</value>,"<value>VQ24+H6G Indianapolis, Indiana</value>","<value>""Freedom 950""</value>","<value>6am - 7pm 
2/hr</value>",<value>$20.00 </value>,,,
WYYC,"X8X4+H2V Woodstream, Pennsylvania",39.9989875,-76.6949531,"State: PA<br>Market City: York<br>Frequency: 98.1 FM<br>1250 AM<br>Format: Religious<br>Tower: X8X4+H2V Woodstream, Pennsylvania<br>Slogan: ""Radio That Changes the Way You Live""<br>Avails: 6A-7P 2/HR.<br>Spot Rate: $30.00 ",<value>PA</value>,<value>York</value>,"<value>98.1 FM
1250 AM</value>",<value>Religious</value>,"<value>X8X4+H2V Woodstream, Pennsylvania</value>","<value>""Radio That Changes the Way You Live""</value>",<value>6A-7P 2/HR.</value>,<value>$30.00 </value>,,,
WZTC (ROS!!!),"Q8G8+MC7 Elmwood Charter Twp, Michigan",44.7766625,-85.6839531,"State: MI<br>Market City: Traverse City<br>Frequency: 104.5 FM<br>Format: Bob FM<br>Tower: Q8G8+MC7 Elmwood Charter Twp, Michigan<br>Slogan: ""Bob FM""<br>Avails: M-F<br>6A - 10A<br>3P - 7P<br>Spot Rate: $32 ",<value>MI</value>,<value>Traverse City</value>,<value>104.5 FM</value>,<value>Bob FM</value>,"<value>Q8G8+MC7 Elmwood Charter Twp, Michigan</value>","<value>""Bob FM""</value>","<value>M-F
6A - 10A
3P - 7P</value>",<value>$32 </value>,,,
WWKR (Non Contracted),"MQG6+CCV Elbridge, Michigan",43.6761125,-86.2389531,"State: MI<br>Market City: Hart, MI<br>Frequency: 94.1 FM<br>Format: Classic Rock<br>Tower: MQG6+CCV Elbridge, Michigan<br>Slogan: ""94 K-Rock""<br>Avails: 6A-7P<br>Spot Rate: $15/30sec<br>$18/60sec",<value>MI</value>,"<value>Hart, MI</value>",<value>94.1 FM</value>,<value>Classic Rock</value>,"<value>MQG6+CCV Elbridge, Michigan</value>","<value>""94 K-Rock""</value>",<value>6A-7P</value>,"<value>$15/30sec
$18/60sec</value>",,,
WKZC (Non Contracted),"3H5M+2G3 Pere Marquette Charter Twp, Michigan",44.0575125,-86.4162031,"State: MI<br>Market City: Scottville, MI<br>Frequency: 94.9 FM<br>Format: Mainstream Country<br>Tower: 3H5M+2G3 Pere Marquette Charter Twp, Michigan<br>Slogan: Big Dog 94.9""<br>Avails: 6A-7P<br>Spot Rate: $15/30sec<br>$18/60sec",<value>MI</value>,"<value>Scottville, MI</value>",<value>94.9 FM</value>,<value>Mainstream Country</value>,"<value>3H5M+2G3 Pere Marquette Charter Twp, Michigan</value>","<value>Big Dog 94.9""</value>",<value>6A-7P</value>,"<value>$15/30sec
$18/60sec</value>",,,
WKLA (Non Contracted),"WH87+Q8C Pere Marquette Charter Twp, Michigan",43.9169375,-86.4367344,"State: MI<br>Market City: Ludington, MI<br>Frequency: 96.3 FM, 92.7 FM, 1450 AM<br>Format: Top 40<br>Tower: WH87+Q8C Pere Marquette Charter Twp, Michigan<br>Slogan: ""Hits 96 KLA""<br>Avails: 6A-7P<br>Spot Rate: $15/30sec<br>$18/60sec",<value>MI</value>,"<value>Ludington, MI</value>","<value>96.3 FM, 92.7 FM, 1450 AM</value>",<value>Top 40</value>,"<value>WH87+Q8C Pere Marquette Charter Twp, Michigan</value>","<value>""Hits 96 KLA""</value>",<value>6A-7P</value>,"<value>$15/30sec
$18/60sec</value>",,,
WLDN & WMLQ (Non Contracted),"6P62+CPX Filer Charter Twp, Michigan",44.2111125,-86.2981406,"State: MI<br>Market City: Ludington, MI<br>Frequency: 98.7 FM, 97.7 FM<br>Format: News<br>Tower: 6P62+CPX Filer Charter Twp, Michigan<br>Slogan: ""News 98""<br>Avails: 6A-7P<br>Spot Rate: $15/30sec<br>$18/60sec",<value>MI</value>,"<value>Ludington, MI</value>","<value>98.7 FM, 97.7 FM</value>",<value>News</value>,"<value>6P62+CPX Filer Charter Twp, Michigan</value>","<value>""News 98""</value>",<value>6A-7P</value>,"<value>$15/30sec
$18/60sec</value>",,,
WQHH (Non Contracted),"R8XJ+QVX Watertown Twp, Michigan",42.8494875,-84.6677656,"State: MI<br>Market City: Dewitt<br>Frequency: 96.5 FM<br>Format: Hip-Hop<br>Tower: R8XJ+QVX Watertown Twp, Michigan<br>Slogan: ""Power 96.5""<br>Avails: 6-7P<br>Spot Rate: $25.00 ",<value>MI</value>,<value>Dewitt</value>,<value>96.5 FM</value>,<value>Hip-Hop</value>,"<value>R8XJ+QVX Watertown Twp, Michigan</value>","<value>""Power 96.5""</value>",<value>6-7P</value>,<value>$25.00 </value>,,,
KADL,"G964+X5R Imperial, Nebraska",40.5124875,-101.6446094,"State: NE<br>Market City: Imperial<br>Frequency: 102.9 FM<br>Format: Adult Hits<br>Tower: G964+X5R Imperial, Nebraska<br>Slogan: ""Jack 102.9""<br>Avails: 6A-7P, 4/hr<br>Spot Rate: $7.00 ",<value>NE</value>,<value>Imperial</value>,<value>102.9 FM</value>,<value>Adult Hits</value>,"<value>G964+X5R Imperial, Nebraska</value>","<value>""Jack 102.9""</value>","<value>6A-7P, 4/hr</value>",<value>$7.00 </value>,,,
KARX,"33PP+9F4 Amarillo, Texas",35.0858875,-101.9137969,"State: TX<br>Market City: Canyon<br>Frequency: 95.7 FM, 107.1 FM<br>Format: Country<br>Tower: 33PP+9F4 Amarillo, Texas<br>Slogan: ""107 Nash Icon""<br>Avails: 6A-7P 2HR<br>Spot Rate: $15.00 ",<value>TX</value>,<value>Canyon</value>,"<value>95.7 FM, 107.1 FM</value>",<value>Country</value>,"<value>33PP+9F4 Amarillo, Texas</value>","<value>""107 Nash Icon""</value>",<value>6A-7P 2HR</value>,<value>$15.00 </value>,,,
KAYT,"HC8X+5WQ Dry Prong, Louisiana",31.5654625,-92.5501406,"State: LA<br>Market City: Greenwood-Monroe-LakeCharles<br>Frequency: 88.1 FM<br>92.5 FM<br>98.9 FM<br>100.1 FM<br>Format: Christian<br>Tower: HC8X+5WQ Dry Prong, Louisiana<br>Slogan: ""The Heart and Soul of Central Louisiana""<br>Avails: 6A-7P 2/HR.<br>Spot Rate: $12.00 ",<value>LA</value>,<value>Greenwood-Monroe-LakeCharles</value>,"<value>88.1 FM
92.5 FM
98.9 FM
100.1 FM</value>",<value>Christian</value>,"<value>HC8X+5WQ Dry Prong, Louisiana</value>","<value>""The Heart and Soul of Central Louisiana""</value>",<value>6A-7P 2/HR.</value>,<value>$12.00 </value>,,,
KAYV,"W23G+4J5 Mt Crested Butte, Colorado",38.9027625,-106.9733906,"State: CO<br>Market City: Crested Butte<br>Frequency: 97.1 FM<br>Format: Rock<br>Tower: W23G+4J5 Mt Crested Butte, Colorado<br>Slogan: ""The Cave""<br>Avails: 6A-7P Unlimited<br>Spot Rate: $15.00 ",<value>CO</value>,<value>Crested Butte</value>,<value>97.1 FM</value>,<value>Rock</value>,"<value>W23G+4J5 Mt Crested Butte, Colorado</value>","<value>""The Cave""</value>",<value>6A-7P Unlimited</value>,<value>$15.00 </value>,,,
KBDT (NO PMs),"58GF+R6C Paradise, Texas",33.1770625,-97.6769844,"State: TX<br>Market City: Dallas<br>Frequency: 1160 AM<br>Format: Talk<br>Tower: 58GF+R6C Paradise, Texas<br>Slogan: ""Radio Saigon Dallas""<br>Avails: M-F<br>9A-2P<br>Spot Rate: $14.00 ",<value>TX</value>,<value>Dallas</value>,<value>1160 AM</value>,<value>Talk</value>,"<value>58GF+R6C Paradise, Texas</value>","<value>""Radio Saigon Dallas""</value>","<value>M-F
9A-2P</value>",<value>$14.00 </value>,,,
KBKG,"CC28+23F Corning, Arkansas",36.4000625,-90.5848281,"State: AR<br>Market City: Corning<br>Frequency: 93.5 FM<br>Format: Classic Hits<br>Tower: CC28+23F Corning, Arkansas<br>Slogan: ""More Music 93.5""<br>Avails: 6am - 7pm <br>2/hr<br>Spot Rate: $5.00 ",<value>AR</value>,<value>Corning</value>,<value>93.5 FM</value>,<value>Classic Hits</value>,"<value>CC28+23F Corning, Arkansas</value>","<value>""More Music 93.5""</value>","<value>6am - 7pm 
2/hr</value>",<value>$5.00 </value>,,,
KBRL,"58RX+Q5C McCook, Nebraska",40.1919375,-100.6521094,"State: NE<br>Market City: McCook<br>Frequency: 97.5 FM<br>1300 AM<br>Format: News/Talk<br>Tower: 58RX+Q5C McCook, Nebraska<br>Slogan: ""The Big Talker""<br>Avails: 6A-7P, 4/hr<br>Spot Rate: $7.00 ",<value>NE</value>,<value>McCook</value>,"<value>97.5 FM
1300 AM</value>",<value>News/Talk</value>,"<value>58RX+Q5C McCook, Nebraska</value>","<value>""The Big Talker""</value>","<value>6A-7P, 4/hr</value>",<value>$7.00 </value>,,,
KCAA,"XRQ7+Q6J Redlands, California",33.9894625,-117.1869844,"State: CA<br>Market City: Loma Linda<br>Frequency: 1050, 102.3, 106.5<br>Format: Talk - Liberal Talk<br>Tower: XRQ7+Q6J Redlands, California<br>Slogan: ""The Station that Leaves No Listener Behind""<br>Avails: 6A-7P 2/Hour<br>Spot Rate: $25.00 ",<value>CA</value>,<value>Loma Linda</value>,"<value>1050, 102.3, 106.5</value>",<value>Talk - Liberal Talk</value>,"<value>XRQ7+Q6J Redlands, California</value>","<value>""The Station that Leaves No Listener Behind""</value>",<value>6A-7P 2/Hour</value>,<value>$25.00 </value>,,,
KCHL,"CH7P+34R San Antonio, Texas",29.4127375,-98.4147344,"State: TX<br>Market City: San Antonio<br>Frequency: 1480 AM<br>92.1 FM<br>Format: Gospel<br>Tower: CH7P+34R San Antonio, Texas<br>Slogan: ""Gospel 1480 - Home of Praise""<br>Avails: 6am - 7pm <br>2/hr<br>Spot Rate: $15.00 ",<value>TX</value>,<value>San Antonio</value>,"<value>1480 AM
92.1 FM</value>",<value>Gospel</value>,"<value>CH7P+34R San Antonio, Texas</value>","<value>""Gospel 1480 - Home of Praise""</value>","<value>6am - 7pm 
2/hr</value>",<value>$15.00 </value>,,,
KCKM-AM,"JXWX+99P Monahans, Texas",31.6459625,-103.0015469,"State: TX<br>Market City: Monahans<br>Frequency: 1330<br>Format: Classic Country<br>Tower: JXWX+99P Monahans, Texas<br>Slogan: ""Classic Country""<br>Avails: 6A-7P 2/HR.<br>Spot Rate: $15.00 ",<value>TX</value>,<value>Monahans</value>,<value>1330</value>,<value>Classic Country</value>,"<value>JXWX+99P Monahans, Texas</value>","<value>""Classic Country""</value>",<value>6A-7P 2/HR.</value>,<value>$15.00 </value>,,,
KCLV-FM,"9RQ7+9M8 Clovis, New Mexico",34.3884125,-103.1857969,"State: NM<br>Market City: Clovis<br>Frequency: 99.1<br>Format: Country<br>Tower: 9RQ7+9M8 Clovis, New Mexico<br>Slogan: ""Country 99""<br>Avails: 6A-7P 2/HR.<br>Spot Rate: $7.50 ",<value>NM</value>,<value>Clovis</value>,<value>99.1</value>,<value>Country</value>,"<value>9RQ7+9M8 Clovis, New Mexico</value>","<value>""Country 99""</value>",<value>6A-7P 2/HR.</value>,<value>$7.50 </value>,,,
KCNW,"38C8+QQH Kansas City, Kansas",39.0719375,-94.6830156,"State: MO<br>Market City: Kansas City<br>Frequency: 96.1 FM<br>1380 AM<br>Format: Religious<br>Tower: 38C8+QQH Kansas City, Kansas<br>Slogan: ""Radio That Changes the Way You Live""<br>Avails: 6A-7P 2/HR.<br>Spot Rate: $30.00 ",<value>MO</value>,<value>Kansas City</value>,"<value>96.1 FM
1380 AM</value>",<value>Religious</value>,"<value>38C8+QQH Kansas City, Kansas</value>","<value>""Radio That Changes the Way You Live""</value>",<value>6A-7P 2/HR.</value>,<value>$30.00 </value>,,,
KCTE,"3HC2+64G Independence, Missouri",39.0705625,-94.4496719,"State: MO<br>Market City: Independence<br>Frequency: 1510AM<br>Format: Sports<br>Tower: 3HC2+64G Independence, Missouri<br>Slogan: ""ESPN 1510""<br>Avails: 6A-7P 2HR<br>Spot Rate: $25.00 ",<value>MO</value>,<value>Independence</value>,<value>1510AM</value>,<value>Sports</value>,"<value>3HC2+64G Independence, Missouri</value>","<value>""ESPN 1510""</value>",<value>6A-7P 2HR</value>,<value>$25.00 </value>,,,
KERI,"922R+QC6 Bakersfield, California",35.3519125,-118.9589844,"State: CA<br>Market City: Bakersfield<br>Frequency: 1410 AM<br>Format: Religious<br>Tower: 922R+QC6 Bakersfield, California<br>Slogan: ""Radio That Changes the Way You Live""<br>Avails: 6A-7P 2/HR.<br>Spot Rate: $30.00 ",<value>CA</value>,<value>Bakersfield</value>,<value>1410 AM</value>,<value>Religious</value>,"<value>922R+QC6 Bakersfield, California</value>","<value>""Radio That Changes the Way You Live""</value>",<value>6A-7P 2/HR.</value>,<value>$30.00 </value>,,,
KFIT,"773V+G4C Austin, Texas",30.2538125,-97.7072344,"State: TX<br>Market City: Austin<br>Frequency: 1060 AM<br>103.9 FM<br>Format: Gospel<br>Tower: 773V+G4C Austin, Texas<br>Slogan: ""96.3 Jack FM""<br>Avails: 6am - 7pm <br>2/hr<br>Spot Rate: $15.00 ",<value>TX</value>,<value>Austin</value>,"<value>1060 AM
103.9 FM</value>",<value>Gospel</value>,"<value>773V+G4C Austin, Texas</value>","<value>""96.3 Jack FM""</value>","<value>6am - 7pm 
2/hr</value>",<value>$15.00 </value>,,,
KFNX,"Q2X5+43C Desert View Village, Phoenix, AZ",33.7978125,-111.9923594,"State: AZ<br>Market City: CAVE CREEK<br>Frequency: 1100AM<br>Format: Talk<br>Tower: Q2X5+43C Desert View Village, Phoenix, AZ<br>Slogan: ""The Pulse of Arizona""<br>Avails: 6A-7P, 2/HR<br>Spot Rate: $10.00 ",<value>AZ</value>,<value>CAVE CREEK</value>,<value>1100AM</value>,<value>Talk</value>,"<value>Q2X5+43C Desert View Village, Phoenix, AZ</value>","<value>""The Pulse of Arizona""</value>","<value>6A-7P, 2/HR</value>",<value>$10.00 </value>,,,
KFPW,"9MR9+P65 Fort Smith, Arkansas",35.3917625,-94.3318906,"State: AR<br>Market City: Fort Smith<br>Frequency: 1230 AM<br>96.7 FM<br>Format: News Talk<br>Tower: 9MR9+P65 Fort Smith, Arkansas<br>Slogan: ""The Marshal""<br>Avails: 6am - 7pm <br>2/hr<br>Spot Rate: $5.00 ",<value>AR</value>,<value>Fort Smith</value>,"<value>1230 AM
96.7 FM</value>",<value>News Talk</value>,"<value>9MR9+P65 Fort Smith, Arkansas</value>","<value>""The Marshal""</value>","<value>6am - 7pm 
2/hr</value>",<value>$5.00 </value>,,,
KFTX,"P9RX+H26 Tierra Grande, Texas",27.7414125,-97.6024844,"State: TX<br>Market City: Corpus Christi<br>Frequency: 97.5 FM<br>Format: Country<br>Tower: P9RX+H26 Tierra Grande, Texas<br>Slogan: ""97.5 Real Country""<br>Avails: 6A-7P, 2/HR<br>Spot Rate: $14.00 ",<value>TX</value>,<value>Corpus Christi</value>,<value>97.5 FM</value>,<value>Country</value>,"<value>P9RX+H26 Tierra Grande, Texas</value>","<value>""97.5 Real Country""</value>","<value>6A-7P, 2/HR</value>",<value>$14.00 </value>,,,
KGMS,"6X2J+9G7 Tucson, Arizona",32.2009125,-111.0187031,"State: AZ<br>Market City: Tucson<br>Frequency: 940 AM<br>Format: Religious<br>Tower: 6X2J+9G7 Tucson, Arizona<br>Slogan: ""Good Message""<br>Avails: 6A-7P 2/HR.<br>Spot Rate: $30.00 ",<value>AZ</value>,<value>Tucson</value>,<value>940 AM</value>,<value>Religious</value>,"<value>6X2J+9G7 Tucson, Arizona</value>","<value>""Good Message""</value>",<value>6A-7P 2/HR.</value>,<value>$30.00 </value>,,,
KHYI (No AMs),"F6C6+2CX Gunter, Texas",33.4701125,-96.7888906,"State: TX<br>Market City: Dallas<br>Frequency: 95.3 FM<br>Format: Country<br>Tower: F6C6+2CX Gunter, Texas<br>Slogan: ""Y95 the Range""<br>Avails: 7P - 12A<br>Spot Rate: $21.00 ",<value>TX</value>,<value>Dallas</value>,<value>95.3 FM</value>,<value>Country</value>,"<value>F6C6+2CX Gunter, Texas</value>","<value>""Y95 the Range""</value>",<value>7P - 12A</value>,<value>$21.00 </value>,,,
KIOU,"H7F4+PRF Bossier City, Louisiana",32.5743125,-93.7429531,"State: LA<br>Market City: Schreveport<br>Frequency: 94.9 FM<br>1480 AM<br>Format: Religious<br>Tower: H7F4+PRF Bossier City, Louisiana<br>Slogan: ""Family Life Radio""<br>Avails: 6A-7P 2/HR.<br>Spot Rate: $30.00 ",<value>LA</value>,<value>Schreveport</value>,"<value>94.9 FM
1480 AM</value>",<value>Religious</value>,"<value>H7F4+PRF Bossier City, Louisiana</value>","<value>""Family Life Radio""</value>",<value>6A-7P 2/HR.</value>,<value>$30.00 </value>,,,
KKBZ-FM,"WGX7+C7G Humphreys Station, California",36.9485625,-119.4867969,"State: CA<br>Market City: Auberry<br>Frequency: 105.1<br>Format: Rock<br>Tower: WGX7+C7G Humphreys Station, California<br>Slogan: ""The Blaze""<br>Avails: ROS (6A - 12A)<br>Spot Rate: $25.00 ",<value>CA</value>,<value>Auberry</value>,<value>105.1</value>,<value>Rock</value>,"<value>WGX7+C7G Humphreys Station, California</value>","<value>""The Blaze""</value>",<value>ROS (6A - 12A)</value>,<value>$25.00 </value>,,,
KKIM,"3924+FM6 Albuquerque, New Mexico",35.0511625,-106.6433594,"State: NM<br>Market City: Albuquerque<br>Frequency: 1000 AM<br>Format: Religious<br>Tower: 3924+FM6 Albuquerque, New Mexico<br>Slogan: ""Radio That Changes the Way You Live""<br>Avails: 6A-7P 2/HR.<br>Spot Rate: $30.00 ",<value>NM</value>,<value>Albuquerque</value>,<value>1000 AM</value>,<value>Religious</value>,"<value>3924+FM6 Albuquerque, New Mexico</value>","<value>""Radio That Changes the Way You Live""</value>",<value>6A-7P 2/HR.</value>,<value>$30.00 </value>,,,
KKXX,"P8G9+PVQ Paradise, California",39.7268375,-121.6802656,"State: CA<br>Market City: Chico<br>Frequency: 930 AM<br>103.9 FM<br>Format: Christian<br>Tower: P8G9+PVQ Paradise, California<br>Slogan: ""KKXX Radio""<br>Avails: 6am - 7pm <br>2/hr<br>Spot Rate: $7.00 ",<value>CA</value>,<value>Chico</value>,"<value>930 AM
103.9 FM</value>",<value>Christian</value>,"<value>P8G9+PVQ Paradise, California</value>","<value>""KKXX Radio""</value>","<value>6am - 7pm 
2/hr</value>",<value>$7.00 </value>,,,
KLCJ,"2W38+825 Hacketts Corner, Louisiana",30.0032625,-93.0848906,"State: LA<br>Market City: Lake Charles<br>Frequency: 104.1 FM<br>Format: Oldies<br>Tower: 2W38+825 Hacketts Corner, Louisiana<br>Slogan: ""The Game (KLWB)""<br>Avails: 6A-7P<br>Spot Rate: $15.00 ",<value>LA</value>,<value>Lake Charles</value>,<value>104.1 FM</value>,<value>Oldies</value>,"<value>2W38+825 Hacketts Corner, Louisiana</value>","<value>""The Game (KLWB)""</value>",<value>6A-7P</value>,<value>$15.00 </value>,,,
KLIL,"22X3+79X Moreauville, Louisiana",31.0482375,-91.9965156,"State: LA<br>Market City: Moreauville<br>Frequency: 92.1 FM<br>Format: Classic Rock<br>Tower: 22X3+79X Moreauville, Louisiana<br>Slogan: ""Cenla's Best Music""<br>Avails: 6am - 7pm<br>Spot Rate: $6 ",<value>LA</value>,<value>Moreauville</value>,<value>92.1 FM</value>,<value>Classic Rock</value>,"<value>22X3+79X Moreauville, Louisiana</value>","<value>""Cenla's Best Music""</value>",<value>6am - 7pm</value>,<value>$6 </value>,,,
KLNG,"635V+467 Council Bluffs, Iowa",41.2077875,-95.9069531,"State: NE<br>Market City: Omaha<br>Frequency: 101.5 FM<br>1560 AM<br>Format: Religious<br>Tower: 635V+467 Council Bluffs, Iowa<br>Slogan: ""Radio That Changes the Way You Live""<br>Avails: 2/hr<br>Spot Rate: $30 ",<value>NE</value>,<value>Omaha</value>,"<value>101.5 FM
1560 AM</value>",<value>Religious</value>,"<value>635V+467 Council Bluffs, Iowa</value>","<value>""Radio That Changes the Way You Live""</value>",<value>2/hr</value>,<value>$30 </value>,,,
KMVN,"8FPM+8QP Eagle River, Anchorage, AK",61.3358375,-149.5155469,"State: AK<br>Market City: Anchorage<br>Frequency: 105.7<br>Format: Hot AC<br>Tower: 8FPM+8QP Eagle River, Anchorage, AK<br>Slogan: ""Movin' 105.7""<br>Avails: 6A-8P 2/HR<br>Spot Rate: ROS 6A-7P: $25 8am-9am: $30",<value>AK</value>,<value>Anchorage</value>,<value>105.7</value>,<value>Hot AC</value>,"<value>8FPM+8QP Eagle River, Anchorage, AK</value>","<value>""Movin' 105.7""</value>",<value>6A-8P 2/HR</value>,<value>ROS 6A-7P: $25 8am-9am: $30</value>,,,
KMWX,"7CG4+J82 Potosi, Texas",32.2765125,-99.5942344,"State: TX<br>Market City: Abilene<br>Frequency: 92.5<br>Format: Pop<br>Tower: 7CG4+J82 Potosi, Texas<br>Slogan: ""Mix 92.5""<br>Avails: 6A-7P 2HR<br>Spot Rate: $17 ",<value>TX</value>,<value>Abilene</value>,<value>92.5</value>,<value>Pop</value>,"<value>7CG4+J82 Potosi, Texas</value>","<value>""Mix 92.5""</value>",<value>6A-7P 2HR</value>,<value>$17 </value>,,,
KMZK,"H2JQ+CPP Atchee, De Beque, CO",39.3344233,-108.2150816,"State: CO<br>Market City: Clifton<br>Frequency: 106.9 FM<br>Format: New Rock Alt<br>Tower: H2JQ+CPP Atchee, De Beque, CO<br>Slogan: ""X106.9""<br>Avails: 6A-7P 2/HR<br>Spot Rate: $25 ",<value>CO</value>,<value>Clifton</value>,<value>106.9 FM</value>,<value>New Rock Alt</value>,"<value>H2JQ+CPP Atchee, De Beque, CO</value>","<value>""X106.9""</value>",<value>6A-7P 2/HR</value>,<value>$25 </value>,,,
KNNR,"H69X+P7R Sun Valley, Nevada",39.5693625,-119.7518594,"State: NV<br>Market City: Reno<br>Frequency: 1400 AM<br>Format: News Talk<br>Tower: H69X+P7R Sun Valley, Nevada<br>Slogan: ""NEWS TALK KNNR""<br>Avails: 6a - 7p 2/hr<br>Spot Rate: $5 ",<value>NV</value>,<value>Reno</value>,<value>1400 AM</value>,<value>News Talk</value>,"<value>H69X+P7R Sun Valley, Nevada</value>","<value>""NEWS TALK KNNR""</value>",<value>6a - 7p 2/hr</value>,<value>$5 </value>,,,
KOGM,"82RP+XR9 Carencro, Louisiana",30.3424125,-91.9628906,"State: LA<br>Market City: Opelousas<br>Frequency: 107.1 FM<br>Format: Country<br>Tower: 82RP+XR9 Carencro, Louisiana<br>Slogan: ""Mustang 107.1""<br>Avails: 6A-7P<br>Spot Rate: $17 ",<value>LA</value>,<value>Opelousas</value>,<value>107.1 FM</value>,<value>Country</value>,"<value>82RP+XR9 Carencro, Louisiana</value>","<value>""Mustang 107.1""</value>",<value>6A-7P</value>,<value>$17 </value>,,,
KOKL,"J25H+F4M Okmulgee, Oklahoma",35.6087125,-95.9722031,"State: OK<br>Market City: Okmulgee/Tulsa<br>Frequency: 1240 AM<br>106.3 FM<br>Format: Classic Rock<br>Tower: J25H+F4M Okmulgee, Oklahoma<br>Slogan: ""1240 The Brew""<br>Avails: 6am - 7pm<br>Spot Rate: $8.25 ",<value>OK</value>,<value>Okmulgee/Tulsa</value>,"<value>1240 AM
106.3 FM</value>",<value>Classic Rock</value>,"<value>J25H+F4M Okmulgee, Oklahoma</value>","<value>""1240 The Brew""</value>",<value>6am - 7pm</value>,<value>$8.25 </value>,,,
KOMX,"H2HW+2W9 Pampa, Texas",35.5775375,-100.9526406,"State: TX<br>Market City: Pampa<br>Frequency: 100.3 FM<br>Format: Country<br>Tower: H2HW+2W9 Pampa, Texas<br>Slogan: ""FM 100.3""<br>Avails: 2/hr<br>Spot Rate: $6.75 ",<value>TX</value>,<value>Pampa</value>,<value>100.3 FM</value>,<value>Country</value>,"<value>H2HW+2W9 Pampa, Texas</value>","<value>""FM 100.3""</value>",<value>2/hr</value>,<value>$6.75 </value>,,,
KPYN,"3RM8+5R7 Atlanta, Texas",33.0829125,-94.1829531,"State: TX<br>Market City: Atlanta<br>Frequency: 900 AM<br>95.5 FM<br>Format: Religious<br>Tower: 3RM8+5R7 Atlanta, Texas<br>Slogan: ""Today's Christian Talk""<br>Avails: 2/hr<br>Spot Rate: $9 ",<value>TX</value>,<value>Atlanta</value>,"<value>900 AM
95.5 FM</value>",<value>Religious</value>,"<value>3RM8+5R7 Atlanta, Texas</value>","<value>""Today's Christian Talk""</value>",<value>2/hr</value>,<value>$9 </value>,,,
KQHK,"58C7+QWH McCook, Nebraska",40.1719375,-100.6851406,"State: NE<br>Market City: McCook<br>Frequency: 103.9<br>Format: Classic Rock<br>Tower: 58C7+QWH McCook, Nebraska<br>Slogan: ""103.9 The Hawk""<br>Avails: 2/hr<br>Spot Rate: $7 ",<value>NE</value>,<value>McCook</value>,<value>103.9</value>,<value>Classic Rock</value>,"<value>58C7+QWH McCook, Nebraska</value>","<value>""103.9 The Hawk""</value>",<value>2/hr</value>,<value>$7 </value>,,,
KQLH,"2XHP+VMR Yucaipa, California",34.0297375,-117.0133594,"State: CA<br>Market City: Yucaipa<br>Frequency: 92.5<br>Format: Oldies<br>Tower: 2XHP+VMR Yucaipa, California<br>Slogan: ""The Music of Main Street""<br>Avails: 6A-7P 2/Hour<br>Spot Rate: $15 ",<value>CA</value>,<value>Yucaipa</value>,<value>92.5</value>,<value>Oldies</value>,"<value>2XHP+VMR Yucaipa, California</value>","<value>""The Music of Main Street""</value>",<value>6A-7P 2/Hour</value>,<value>$15 </value>,,,
KQSP (ROS!!!),"RC4V+V4G Chanhassen, Minnesota",44.8071875,-93.5571719,"State: MN<br>Market City: Shakopee<br>Frequency: 1530 AM<br>Format: Sports Talk<br>Tower: RC4V+V4G Chanhassen, Minnesota<br>Slogan: ""KQSP Sport Talk Radio""<br>Avails: 10A - 2 P<br>Spot Rate: $5 ",<value>MN</value>,<value>Shakopee</value>,<value>1530 AM</value>,<value>Sports Talk</value>,"<value>RC4V+V4G Chanhassen, Minnesota</value>","<value>""KQSP Sport Talk Radio""</value>",<value>10A - 2 P</value>,<value>$5 </value>,,,
KSBV,"CXWQ+HM2 Salida, Colorado",38.4463875,-106.0108594,"State: CO<br>Market City: Salida<br>Frequency: 93.7 FM<br>Format: Classic Rock<br>Tower: CXWQ+HM2 Salida, Colorado<br>Slogan: ""The River Rat""<br>Avails: 6A-7P Unlimited<br>Spot Rate: $15 ",<value>CO</value>,<value>Salida</value>,<value>93.7 FM</value>,<value>Classic Rock</value>,"<value>CXWQ+HM2 Salida, Colorado</value>","<value>""The River Rat""</value>",<value>6A-7P Unlimited</value>,<value>$15 </value>,,,
KSEQ-FM,"J3P4+6P4 Hartland, California",36.6355125,-118.9431719,"State: CA<br>Market City: Visalia<br>Frequency: 97.1<br>Format: Top-40<br>Tower: J3P4+6P4 Hartland, California<br>Slogan: ""Q97.1 All the Hits""<br>Avails: 6A-7P 2/HR.<br>Spot Rate: $45 ",<value>CA</value>,<value>Visalia</value>,<value>97.1</value>,<value>Top-40</value>,"<value>J3P4+6P4 Hartland, California</value>","<value>""Q97.1 All the Hits""</value>",<value>6A-7P 2/HR.</value>,<value>$45 </value>,,,
KSEV,"5CV4+54W The Woodlands, Texas",30.1929875,-95.5946719,"State: TX<br>Market City: Tomball<br>Frequency: 700 AM<br>Format: Talk<br>Tower: 5CV4+54W The Woodlands, Texas<br>Slogan: ""The Voice of Texas""<br>Avails: M-F 6A-7P<br>Spot Rate: $22 ",<value>TX</value>,<value>Tomball</value>,<value>700 AM</value>,<value>Talk</value>,"<value>5CV4+54W The Woodlands, Texas</value>","<value>""The Voice of Texas""</value>",<value>M-F 6A-7P</value>,<value>$22 </value>,,,
KSEY,"HPWC+RG8 Seymour, Texas",33.5970375,-99.2786719,"State: TX<br>Market City: Seymour/Witchita Falls<br>Frequency: 1230 AM<br>Format: Sports<br>Tower: HPWC+RG8 Seymour, Texas<br>Slogan: ""ESPN 1230""<br>Avails: 6am - 7pm <br>Spot Rate: $5 ",<value>TX</value>,<value>Seymour/Witchita Falls</value>,<value>1230 AM</value>,<value>Sports</value>,"<value>HPWC+RG8 Seymour, Texas</value>","<value>""ESPN 1230""</value>",<value>6am - 7pm </value>,<value>$5 </value>,,,
KSEY,"HPWC+RG8 Seymour, Texas",33.5970375,-99.2786719,"State: TX<br>Market City: Seymour/Witchita Falls<br>Frequency: 94.3 FM<br>Format: Country<br>Tower: HPWC+RG8 Seymour, Texas<br>Slogan: ""A Country Tradition""<br>Avails: 6am - 7pm <br>Spot Rate: $5 ",<value>TX</value>,<value>Seymour/Witchita Falls</value>,<value>94.3 FM</value>,<value>Country</value>,"<value>HPWC+RG8 Seymour, Texas</value>","<value>""A Country Tradition""</value>",<value>6am - 7pm </value>,<value>$5 </value>,,,
KSTH,"HMHH+QWC Holyoke, Colorado",40.5794375,-102.3202344,"State: CO<br>Market City: Holyoke<br>Frequency: 92.3 FM<br>Format: Adult Contemporary<br>Tower: HMHH+QWC Holyoke, Colorado<br>Slogan: ""Star 92.3""<br>Avails: 6A-7P, 4/hr<br>Spot Rate: $7 ",<value>CO</value>,<value>Holyoke</value>,<value>92.3 FM</value>,<value>Adult Contemporary</value>,"<value>HMHH+QWC Holyoke, Colorado</value>","<value>""Star 92.3""</value>","<value>6A-7P, 4/hr</value>",<value>$7 </value>,,,
KTXO-FM,"V88V+WRP West Odessa, Texas",31.8673375,-102.6554219,"State: TX<br>Market City: Goldsmith<br>Frequency: 94.7<br>Format: Classic Country<br>Tower: V88V+WRP West Odessa, Texas<br>Slogan: ""Kickin' Country""<br>Avails: 6A-7P 2/HR.<br>Spot Rate: $15 ",<value>TX</value>,<value>Goldsmith</value>,<value>94.7</value>,<value>Classic Country</value>,"<value>V88V+WRP West Odessa, Texas</value>","<value>""Kickin' Country""</value>",<value>6A-7P 2/HR.</value>,<value>$15 </value>,,,
KVOL-KLCJ,"6WRR+JGJ Lafayette, Louisiana",30.2415875,-92.0587344,"State: LA<br>Market City: Lafayette<br>Frequency: 1330, 99.7, <br>104.1 (KLCJ)<br>Format: Oldies<br>Tower: 6WRR+JGJ Lafayette, Louisiana<br>Slogan: ""97.7 MeTV FM"" ""The Game 104.1""<br>Avails: 6A-7P<br>Spot Rate: $15 ",<value>LA</value>,<value>Lafayette</value>,"<value>1330, 99.7, 
104.1 (KLCJ)</value>",<value>Oldies</value>,"<value>6WRR+JGJ Lafayette, Louisiana</value>","<value>""97.7 MeTV FM"" ""The Game 104.1""</value>",<value>6A-7P</value>,<value>$15 </value>,,,
KWDF,"9GHG+57P Alexandria, Louisiana",31.3779625,-92.4742969,"State: LA<br>Market City: Alexandria<br>Frequency: 99.7 FM<br>840 AM<br>Format: Religious<br>Tower: 9GHG+57P Alexandria, Louisiana<br>Slogan: ""Radio That Changes the Way You Live""<br>Avails: 6A-7P 2/HR.<br>Spot Rate: $30 ",<value>LA</value>,<value>Alexandria</value>,"<value>99.7 FM
840 AM</value>",<value>Religious</value>,"<value>9GHG+57P Alexandria, Louisiana</value>","<value>""Radio That Changes the Way You Live""</value>",<value>6A-7P 2/HR.</value>,<value>$30 </value>,,,
KXEZ (NO Ams!!),"7JGJ+9FC Blue Ridge, Texas",33.2759375,-96.3688594,"State: TX<br>Market City: Dallas<br>Frequency: 92.1 FM<br>Format: Country<br>Tower: 7JGJ+9FC Blue Ridge, Texas<br>Slogan: ""The Possum 92.1""<br>Avails: 7P - 12A<br>Spot Rate: $18.75 ",<value>TX</value>,<value>Dallas</value>,<value>92.1 FM</value>,<value>Country</value>,"<value>7JGJ+9FC Blue Ridge, Texas</value>","<value>""The Possum 92.1""</value>",<value>7P - 12A</value>,<value>$18.75 </value>,,,
KXKS,"3924+FM6 Albuquerque, New Mexico",35.0511625,-106.6433594,"State: NM<br>Market City: Albuquerque<br>Frequency: 1190 AM<br>Format: Talk<br>Tower: 3924+FM6 Albuquerque, New Mexico<br>Slogan: ""The Answer""<br>Avails: 6A-7P 2/HR.<br>Spot Rate: $30 ",<value>NM</value>,<value>Albuquerque</value>,<value>1190 AM</value>,<value>Talk</value>,"<value>3924+FM6 Albuquerque, New Mexico</value>","<value>""The Answer""</value>",<value>6A-7P 2/HR.</value>,<value>$30 </value>,,,
KXRQ,"G7CR+8W9 Maeser, Utah",40.5207875,-109.7076406,"State: UT<br>Market City: Roosevelt/Vernal<br>Frequency: 94.3 FM<br>Format: Top-40<br>Tower: G7CR+8W9 Maeser, Utah<br>Slogan: ""The Basin's #1 Hit Music Station""<br>Avails: 6A-7P 2/HR<br>Spot Rate: $20 ",<value>UT</value>,<value>Roosevelt/Vernal</value>,<value>94.3 FM</value>,<value>Top-40</value>,"<value>G7CR+8W9 Maeser, Utah</value>","<value>""The Basin's #1 Hit Music Station""</value>",<value>6A-7P 2/HR</value>,<value>$20 </value>,,,
KZHE,"FPGG+FPR Willisville, Arkansas",33.4762375,-93.2732344,"State: AR<br>Market City: Magnolia<br>Frequency: 100.5 FM<br>Format: Country<br>Tower: FPGG+FPR Willisville, Arkansas<br>Slogan: ""Classic Hit Country""<br>Avails: 6am - 7pm<br>Spot Rate: $6 ",<value>AR</value>,<value>Magnolia</value>,<value>100.5 FM</value>,<value>Country</value>,"<value>FPGG+FPR Willisville, Arkansas</value>","<value>""Classic Hit Country""</value>",<value>6am - 7pm</value>,<value>$6 </value>,,,
KZLG,"22W4+V32 Moreauville, Louisiana",31.0471375,-91.9948594,"State: LA<br>Market City: Moreauville<br>Frequency: 95.9 FM<br>Format: Adult Contemporary<br>Tower: 22W4+V32 Moreauville, Louisiana<br>Slogan: ""Z 95.9""<br>Avails: 6am - 7pm<br>Spot Rate: $6 ",<value>LA</value>,<value>Moreauville</value>,<value>95.9 FM</value>,<value>Adult Contemporary</value>,"<value>22W4+V32 Moreauville, Louisiana</value>","<value>""Z 95.9""</value>",<value>6am - 7pm</value>,<value>$6 </value>,,,
KZND,"8FPP+C4V Eagle River, Anchorage, AK",61.3361125,-149.5147031,"State: AK<br>Market City: Houston<br>Frequency: 94.7<br>Format: Alternative<br>Tower: 8FPP+C4V Eagle River, Anchorage, AK<br>Slogan: ""94.7 Alternative Anchorage""<br>Avails:   6A-7P 2/hr ROS $25<br>Spot Rate:  8a-9a: $30",<value>AK</value>,<value>Houston</value>,<value>94.7</value>,<value>Alternative</value>,"<value>8FPP+C4V Eagle River, Anchorage, AK</value>","<value>""94.7 Alternative Anchorage""</value>",<value>  6A-7P 2/hr ROS $25</value>,<value> 8a-9a: $30</value>,,,
W292DE(WBHU),"VM29+6X7 St Augustine South, Florida",29.8505375,-81.3300781,"State: FL<br>Market City: Saint Augustine Beach<br>Frequency: 106.3<br>Format: Country<br>Tower: VM29+6X7 St Augustine South, Florida<br>Slogan: ""Beach 105.5""<br>Avails: 6A-8P 2/HR<br>Spot Rate: $30 ",<value>FL</value>,<value>Saint Augustine Beach</value>,<value>106.3</value>,<value>Country</value>,"<value>VM29+6X7 St Augustine South, Florida</value>","<value>""Beach 105.5""</value>",<value>6A-8P 2/HR</value>,<value>$30 </value>,,,
WASG-AM,"PWW4+C84 Prichard, Alabama",30.7460125,-88.0941719,"State: AL<br>Market City: Mobile<br>Frequency: 106.1 FM<br>540 AM<br>Format: Religious<br>Tower: PWW4+C84 Prichard, Alabama<br>Slogan: ""Radio That Changes the Way You Live""<br>Avails: 6A-7P 2/HR.<br>Spot Rate: $30 ",<value>AL</value>,<value>Mobile</value>,"<value>106.1 FM
540 AM</value>",<value>Religious</value>,"<value>PWW4+C84 Prichard, Alabama</value>","<value>""Radio That Changes the Way You Live""</value>",<value>6A-7P 2/HR.</value>,<value>$30 </value>,,,
WATT,"6HFX+MXG Cadillac, Michigan",44.2241875,-85.4000469,"State: MI<br>Market City: Cadillac<br>Frequency: 106.1 FM<br>1240 AM<br>Format: News Talk - Conservative<br>Tower: 6HFX+MXG Cadillac, Michigan<br>Slogan: ""News Talk 1240""<br>Avails: M-F 6A-7P<br>Spot Rate: $30 ",<value>MI</value>,<value>Cadillac</value>,"<value>106.1 FM
1240 AM</value>",<value>News Talk - Conservative</value>,"<value>6HFX+MXG Cadillac, Michigan</value>","<value>""News Talk 1240""</value>",<value>M-F 6A-7P</value>,<value>$30 </value>,,,
WBHU,"VM29+6X7 St Augustine South, Florida",29.8505375,-81.3300781,"State: FL<br>Market City: Saint Augustine Beach<br>Frequency: 105.5<br>Format: Adult Hits<br>Tower: VM29+6X7 St Augustine South, Florida<br>Slogan: ""Beach 105.5""<br>Avails: 6A-8P 2/HR<br>Spot Rate: $30 ",<value>FL</value>,<value>Saint Augustine Beach</value>,<value>105.5</value>,<value>Adult Hits</value>,"<value>VM29+6X7 St Augustine South, Florida</value>","<value>""Beach 105.5""</value>",<value>6A-8P 2/HR</value>,<value>$30 </value>,,,
WBKY,"RW2W+66F Newville, Wisconsin",42.8005625,-89.0544531,"State: WI<br>Market City: Portage<br>Frequency: 95.9 FM<br>Format: CALL PRIOR<br>Transmitter Location: RW2W+66F Newville, Wisconsin<br>Slogan: CALL PRIOR<br>Avails: CALL PRIOR<br>Spot Rate: ",<value>WI</value>,<value>Portage</value>,<value>95.9 FM</value>,<value>CALL PRIOR</value>,,<value>CALL PRIOR</value>,<value>CALL PRIOR</value>,<value/>,"<value>RW2W+66F Newville, Wisconsin</value>",,
WDDC,"GHH8+8GC Portage, Wisconsin",43.5283125,-89.4337344,"State: WI<br>Market City: Portage<br>Frequency: 100.1 FM<br>Format: CALL PRIOR<br>Transmitter Location: GHH8+8GC Portage, Wisconsin<br>Slogan: CALL PRIOR<br>Avails: CALL PRIOR<br>Spot Rate: ",<value>WI</value>,<value>Portage</value>,<value>100.1 FM</value>,<value>CALL PRIOR</value>,,<value>CALL PRIOR</value>,<value>CALL PRIOR</value>,<value/>,"<value>GHH8+8GC Portage, Wisconsin</value>",,
WDLS,"J7QH+6CC Wisconsin Dells, Wisconsin",43.6380625,-89.7214844,"State: WI<br>Market City: Wisconsin Dells<br>Frequency: 900 AM<br>Format: CALL PRIOR<br>Transmitter Location: J7QH+6CC Wisconsin Dells, Wisconsin<br>Slogan: CALL PRIOR<br>Avails: CALL PRIOR<br>Spot Rate: ",<value>WI</value>,<value>Wisconsin Dells</value>,<value>900 AM</value>,<value>CALL PRIOR</value>,,<value>CALL PRIOR</value>,<value>CALL PRIOR</value>,<value/>,"<value>J7QH+6CC Wisconsin Dells, Wisconsin</value>",,
WDUX,"9W3R+PG9 Waupaca, Wisconsin",44.3542875,-89.0586406,"State: WI<br>Market City: Waupaca<br>Frequency: 92.7<br>Format: CALL PRIOR<br>Transmitter Location: 9W3R+PG9 Waupaca, Wisconsin<br>Slogan: CALL PRIOR<br>Avails: CALL PRIOR<br>Spot Rate: ",<value>WI</value>,<value>Waupaca</value>,<value>92.7</value>,<value>CALL PRIOR</value>,,<value>CALL PRIOR</value>,<value>CALL PRIOR</value>,<value/>,"<value>9W3R+PG9 Waupaca, Wisconsin</value>",,
WNFM,"HXRQ+V7P Reedsburg, Wisconsin",43.5922125,-90.0117969,"State: WI<br>Market City: Reedsburg<br>Frequency: 104.9 FM<br>Format: CALL PRIOR<br>Transmitter Location: HXRQ+V7P Reedsburg, Wisconsin<br>Slogan: CALL PRIOR<br>Avails: CALL PRIOR<br>Spot Rate: ",<value>WI</value>,<value>Reedsburg</value>,<value>104.9 FM</value>,<value>CALL PRIOR</value>,,<value>CALL PRIOR</value>,<value>CALL PRIOR</value>,<value/>,"<value>HXRQ+V7P Reedsburg, Wisconsin</value>",,
WNNO,"J7QH+6CC Wisconsin Dells, Wisconsin",43.6380625,-89.7214844,"State: WI<br>Market City: Wisconsin Dells<br>Frequency: 106.9 FM<br>Format: CALL PRIOR<br>Transmitter Location: J7QH+6CC Wisconsin Dells, Wisconsin<br>Slogan: CALL PRIOR<br>Avails: CALL PRIOR<br>Spot Rate: ",<value>WI</value>,<value>Wisconsin Dells</value>,<value>106.9 FM</value>,<value>CALL PRIOR</value>,,<value>CALL PRIOR</value>,<value>CALL PRIOR</value>,<value/>,"<value>J7QH+6CC Wisconsin Dells, Wisconsin</value>",,
WRDB,"GXR8+M32 Reedsburg, Wisconsin",43.5416375,-90.0348594,"State: WI<br>Market City: Reedsburg<br>Frequency: 1400 AM<br>Format: CALL PRIOR<br>Transmitter Location: GXR8+M32 Reedsburg, Wisconsin<br>Slogan: CALL PRIOR<br>Avails: CALL PRIOR<br>Spot Rate: ",<value>WI</value>,<value>Reedsburg</value>,<value>1400 AM</value>,<value>CALL PRIOR</value>,,<value>CALL PRIOR</value>,<value>CALL PRIOR</value>,<value/>,"<value>GXR8+M32 Reedsburg, Wisconsin</value>",,
WRJO,"5J8M+8J6 Land O' Lakes, Wisconsin",46.1657875,-89.3659844,"State: WI<br>Market City: Eagle River<br>Frequency: 94.5 FM<br>Format: CALL PRIOR<br>Transmitter Location: 5J8M+8J6 Land O' Lakes, Wisconsin<br>Slogan: CALL PRIOR<br>Avails: CALL PRIOR<br>Spot Rate: ",<value>WI</value>,<value>Eagle River</value>,<value>94.5 FM</value>,<value>CALL PRIOR</value>,,<value>CALL PRIOR</value>,<value>CALL PRIOR</value>,<value/>,"<value>5J8M+8J6 Land O' Lakes, Wisconsin</value>",,
WHZT,"M2Q7+27M Seneca, South Carolina",34.6875875,-82.9868281,"State: SC<br>Market City: Williamston<br>Frequency: 98.1 FM<br>Format: CALL PRIOR<br>Transmitter Location: M2Q7+27M Seneca, South Carolina<br>Slogan: CALL PRIOR<br>Avails: CALL PRIOR<br>Spot Rate: ",<value>SC</value>,<value>Williamston</value>,<value>98.1 FM</value>,<value>CALL PRIOR</value>,,<value>CALL PRIOR</value>,<value>CALL PRIOR</value>,<value/>,"<value>M2Q7+27M Seneca, South Carolina</value>",,
KSTN,"WQG3+59R Kennedy, California",37.9254875,-121.2466094,"State: CA<br>Market City: Stockton<br>Frequency: 1420 AM<br>Format: Country<br>Transmitter Location: WQG3+59R Kennedy, California<br>Slogan: ""105.9 The Bull""<br>Avails: 6A to 7P 2 Spots/hr<br>Spot Rate: $42.00 ",<value>CA</value>,<value>Stockton</value>,<value>1420 AM</value>,<value>Country</value>,,"<value>""105.9 The Bull""</value>",<value>6A to 7P 2 Spots/hr</value>,<value>$42.00 </value>,"<value>WQG3+59R Kennedy, California</value>",,
WXRY,"2X38+97X Columbia, South Carolina",34.0034875,-81.0342656,"State: SC<br>Market City: Columbia<br>Frequency: 99.3<br>Format: CALL PRIOR<br>Transmitter Location: 2X38+97X Columbia, South Carolina<br>Slogan: CALL PRIOR<br>Avails: CALL PRIOR<br>Spot Rate: ",<value>SC</value>,<value>Columbia</value>,<value>99.3</value>,<value>CALL PRIOR</value>,,<value>CALL PRIOR</value>,<value>CALL PRIOR</value>,<value/>,"<value>2X38+97X Columbia, South Carolina</value>",,
KCBL,"Q677+J9W Fresno, California",36.7641125,-119.7865469,"State: CA<br>Market City: Fresno<br>Frequency: 1340<br>Format: CALL PRIOR<br>Transmitter Location: Q677+J9W Fresno, California<br>Slogan: CALL PRIOR<br>Avails: CALL PRIOR<br>Spot Rate: ",<value>CA</value>,<value>Fresno</value>,<value>1340</value>,<value>CALL PRIOR</value>,,<value>CALL PRIOR</value>,<value>CALL PRIOR</value>,<value/>,"<value>Q677+J9W Fresno, California</value>",,
KCBQ,"V3WF+2G9 Lakeside, California",32.8950375,-116.9261406,"State: CA<br>Market City: San Diego<br>Frequency: 1170<br>Format: Talk<br>Transmitter Location: V3WF+2G9 Lakeside, California<br>Slogan: ""1170 The Answer""<br>Avails: 6A to 7P 2 Spots/hr<br>Spot Rate: $35.00 ",<value>CA</value>,<value>San Diego</value>,<value>1170</value>,<value>Talk</value>,,"<value>""1170 The Answer""</value>",<value>6A to 7P 2 Spots/hr</value>,<value>$35.00 </value>,"<value>V3WF+2G9 Lakeside, California</value>",,
KCBQ-K241CT,"4Q6X+F39 San Marcos, California",33.1111625,-117.2022656,"State: CA<br>Market City: Ocean Side<br>Frequency: 96.1<br>Format: Talk<br>Transmitter Location: 4Q6X+F39 San Marcos, California<br>Slogan: ""1170 The Answer""<br>Avails: 6A to 7P 2 Spots/hr<br>Spot Rate: $35.00 ",<value>CA</value>,<value>Ocean Side</value>,<value>96.1</value>,<value>Talk</value>,,"<value>""1170 The Answer""</value>",<value>6A to 7P 2 Spots/hr</value>,<value>$35.00 </value>,"<value>4Q6X+F39 San Marcos, California</value>",,
WWCN,"F3QC+775 Iona, Florida",26.4881375,-81.9292656,"State: FL<br>Market City: Ft. Myers & Naples<br>Frequency: 99.3<br>Format: CALL PRIOR<br>Transmitter Location: F3QC+775 Iona, Florida<br>Slogan: CALL PRIOR<br>Avails: CALL PRIOR<br>Spot Rate: ",<value>FL</value>,<value>Ft. Myers &amp; Naples</value>,<value>99.3</value>,<value>CALL PRIOR</value>,,<value>CALL PRIOR</value>,<value>CALL PRIOR</value>,<value/>,"<value>F3QC+775 Iona, Florida</value>",,
WENG,"XMCG+FP9 Englewood Farms, North Port, FL",26.9711625,-82.3231406,"State: FL<br>Market City: Englewood<br>Frequency: 1530 AM<br>Format: CALL PRIOR<br>Transmitter Location: XMCG+FP9 Englewood Farms, North Port, FL<br>Slogan: CALL PRIOR<br>Avails: CALL PRIOR<br>Spot Rate: ",<value>FL</value>,<value>Englewood</value>,<value>1530 AM</value>,<value>CALL PRIOR</value>,,<value>CALL PRIOR</value>,<value>CALL PRIOR</value>,<value/>,"<value>XMCG+FP9 Englewood Farms, North Port, FL</value>",,
WCXS,"64HR+HXF Arcadia, Florida",27.2289375,-81.8575781,"State: FL<br>Market City: Englewood<br>Frequency: 1480 AM<br>Format: CALL PRIOR<br>Transmitter Location: 64HR+HXF Arcadia, Florida<br>Slogan: CALL PRIOR<br>Avails: CALL PRIOR<br>Spot Rate: ",<value>FL</value>,<value>Englewood</value>,<value>1480 AM</value>,<value>CALL PRIOR</value>,,<value>CALL PRIOR</value>,<value>CALL PRIOR</value>,<value/>,"<value>64HR+HXF Arcadia, Florida</value>",,
WCRL,"XG3H+R47 Oneonta, Alabama",33.9545375,-86.4722031,"State: AL<br>Market City: Oneonta<br>Frequency: 95.3 FM<br>Format: CALL PRIOR<br>Transmitter Location: XG3H+R47 Oneonta, Alabama<br>Slogan: CALL PRIOR<br>Avails: CALL PRIOR<br>Spot Rate: ",<value>AL</value>,<value>Oneonta</value>,<value>95.3 FM</value>,<value>CALL PRIOR</value>,,<value>CALL PRIOR</value>,<value>CALL PRIOR</value>,<value/>,"<value>XG3H+R47 Oneonta, Alabama</value>",,
WYGM,"F8JQ+M86 Horizon West, Florida",28.4816625,-81.6617344,"State: FL<br>Market City: Orlando<br>Frequency: 740 AM<br>Format: CALL PRIOR<br>Transmitter Location: F8JQ+M86 Horizon West, Florida<br>Slogan: CALL PRIOR<br>Avails: CALL PRIOR<br>Spot Rate: ",<value>FL</value>,<value>Orlando</value>,<value>740 AM</value>,<value>CALL PRIOR</value>,,<value>CALL PRIOR</value>,<value>CALL PRIOR</value>,<value/>,"<value>F8JQ+M86 Horizon West, Florida</value>",,
KRDO,"R5H6+C6W Colorado Springs, Colorado",38.8286125,-104.8394219,"State: CO<br>Market City: Colorado Springs<br>Frequency: 1240 AM<br>Format: CALL PRIOR<br>Transmitter Location: R5H6+C6W Colorado Springs, Colorado<br>Slogan: CALL PRIOR<br>Avails: CALL PRIOR<br>Spot Rate: ",<value>CO</value>,<value>Colorado Springs</value>,<value>1240 AM</value>,<value>CALL PRIOR</value>,,<value>CALL PRIOR</value>,<value>CALL PRIOR</value>,<value/>,"<value>R5H6+C6W Colorado Springs, Colorado</value>",,
KIOD,"55RR+8JJ Culbertson, Nebraska",40.1908375,-100.8084844,"State: NE<br>Market City: McCook<br>Frequency: 105.3 FM<br>Format: CALL PRIOR<br>Transmitter Location: 55RR+8JJ Culbertson, Nebraska<br>Slogan: CALL PRIOR<br>Avails: CALL PRIOR<br>Spot Rate: ",<value>NE</value>,<value>McCook</value>,<value>105.3 FM</value>,<value>CALL PRIOR</value>,,<value>CALL PRIOR</value>,<value>CALL PRIOR</value>,<value/>,"<value>55RR+8JJ Culbertson, Nebraska</value>",,
WUPF,"PM63+85F Harris, Michigan",45.7108125,-87.3470781,"State: MI<br>Market City: Escabana<br>Frequency: 107.3 FM<br>Format: CALL PRIOR<br>Transmitter Location: PM63+85F Harris, Michigan<br>Slogan: CALL PRIOR<br>Avails: CALL PRIOR<br>Spot Rate: $16.00",<value>MI</value>,<value>Escabana</value>,<value>107.3 FM</value>,<value>CALL PRIOR</value>,,<value>CALL PRIOR</value>,<value>CALL PRIOR</value>,<value>$16.00</value>,"<value>PM63+85F Harris, Michigan</value>",,
KDCQ,"9Q34+J95 Coos Bay, Oregon",43.3540125,-124.2440156,"State: OR<br>Market City: Coos Bay<br>Frequency: 93.5<br>Format: CALL PRIOR<br>Transmitter Location: 9Q34+J95 Coos Bay, Oregon<br>Slogan: CALL PRIOR<br>Avails: CALL PRIOR<br>Spot Rate: ",<value>OR</value>,<value>Coos Bay</value>,<value>93.5</value>,<value>CALL PRIOR</value>,,<value>CALL PRIOR</value>,<value>CALL PRIOR</value>,<value/>,"<value>9Q34+J95 Coos Bay, Oregon</value>",,
WVNW,"H8P4+F8G Belleville, Pennsylvania",40.5861875,-77.6941719,"State: PA<br>Market City: Burnham<br>Frequency: 96.7<br>Format: CALL PRIOR<br>Transmitter Location: H8P4+F8G Belleville, Pennsylvania<br>Slogan: CALL PRIOR<br>Avails: CALL PRIOR<br>Spot Rate: ",<value>PA</value>,<value>Burnham</value>,<value>96.7</value>,<value>CALL PRIOR</value>,,<value>CALL PRIOR</value>,<value>CALL PRIOR</value>,<value/>,"<value>H8P4+F8G Belleville, Pennsylvania</value>",,
KBLQ,"V5CR+J6Q Smithfield, Utah",41.8715875,-111.8093906,"State: UT<br>Market City: Logan<br>Frequency: 92.9<br>Format: CALL PRIOR<br>Transmitter Location: V5CR+J6Q Smithfield, Utah<br>Slogan: CALL PRIOR<br>Avails: CALL PRIOR<br>Spot Rate: ",<value>UT</value>,<value>Logan</value>,<value>92.9</value>,<value>CALL PRIOR</value>,,<value>CALL PRIOR</value>,<value>CALL PRIOR</value>,<value/>,"<value>V5CR+J6Q Smithfield, Utah</value>",,
KWIQ,"4Q25+WGX Moses Lake, Washington",47.1023625,-119.2411406,"State: WA<br>Market City: Moses Lake<br>Frequency: 100.5 FM<br>Format: CALL PRIOR<br>Transmitter Location: 4Q25+WGX Moses Lake, Washington<br>Slogan: CALL PRIOR<br>Avails: CALL PRIOR<br>Spot Rate: ",<value>WA</value>,<value>Moses Lake</value>,<value>100.5 FM</value>,<value>CALL PRIOR</value>,,<value>CALL PRIOR</value>,<value>CALL PRIOR</value>,<value/>,"<value>4Q25+WGX Moses Lake, Washington</value>",,
WUPN,"F78J+C62 Dollar Settlement, Michigan",46.4660125,-84.7194844,"State: MI<br>Market City: Paradise<br>Frequency: 95.1<br>Format: Classic Hits<br>Transmitter Location: F78J+C62 Dollar Settlement, Michigan<br>Slogan: Eagle 95.1<br>Avails: 6A to 7P 2 Spots/hr<br>Spot Rate: $10.00 ",<value>MI</value>,<value>Paradise</value>,<value>95.1</value>,<value>Classic Hits</value>,,<value>Eagle 95.1</value>,<value>6A to 7P 2 Spots/hr</value>,<value>$10.00 </value>,"<value>F78J+C62 Dollar Settlement, Michigan</value>",,
KKGR,"East Helena, MT",46.5896567,-111.9155461,"Frequency: 680��AM<br>Location: East Helena, MT<br>unnamed (1): <br>Format: Classic ",,,<value>680��AM</va,<value>Classic Hits</value>,,,,,,<value/>,"<value>East Helena, MT</value>"
WCSR,"Hillsdale, MI",41.9200472,-84.6305101,"Frequency: 1340��AM<br>Location: Hillsdale, MI<br>unnamed (1): <br>Format: Cou",,,<value>1340��AM</va,<value>Country</value>,,,,,,<value/>,"<value>Hillsdale, MI</value>"
KEPN,"Lakewood, CO",39.7047095,-105.0813734,"Frequency: 1600 AM<br>Location: Lakewood, CO<br>unnamed (1): <br>Format: Sports",,,<value>1600 AM</value>,<value>Sports</value>,,,,,,<value/>,"<value>Lakewood, CO</value>"
KOFX,"El Paso, TX",31.7618778,-106.4850217,"Frequency: 92.3 FM<br>Location: El Paso, TX<br>unnamed (1): <br>Format: Classic Hits",,,<value>92.3 FM</value>,<value>Classic Hits</value>,,,,,,<value/>,"<value>El Paso, TX</value>"
KLFX,"Litchfield, MN",45.1258332,-94.5283333,"Frequency: 1410 AM<br>Location: Litchfield, MN<br>unnamed (1): <br>Format: Variety",,,<value>1410 AM</value>,<value>Variety</value>,,,,,,<value/>,"<value>Litchfield, MN</value>"
WYYZ,"Jasper, GA",34.4695524,-84.4289888,"Frequency: 1490 AM<br>Location: Jasper, GA<br>unnamed (1): <br>Format: Classic Country",,,<value>1490 AM</value>,<value>Classic Country</value>,,,,,,<value/>,"<value>Jasper, GA</value>"
KBUC,"Raymonville, TX",26.4814565,-97.783051,"Frequency: 102.1 FM<br>Location: Raymonville, TX<br>unnamed (1): <br>Format: Super Tejano",,,<value>102.1 FM</value>,<value>Super Tejano</value>,,,,,,<value/>,"<value>Raymonville, TX</value>"
